<?xml version="1.0" encoding="UTF-8"?>
<gpx xmlns="http://www.topografix.com/GPX/1/1" version="1.1" creator="moto-route-mapper demo">
  <metadata><name>Dolomites: Bolzano to Cortina</name></metadata>
  <wpt lat="46.498300" lon="11.354800"><ele>262</ele><name>Bolzano</name><desc>Town — 262 m</desc><sym>Summit</sym></wpt>
  <wpt lat="46.512200" lon="11.759400"><ele>2244</ele><name>Passo Sella</name><desc>Summit — 2244 m</desc><sym>Summit</sym></wpt>
  <wpt lat="46.487900" lon="11.812900"><ele>2239</ele><name>Passo Pordoi</name><desc>Summit — 2239 m</desc><sym>Summit</sym></wpt>
  <wpt lat="46.519200" lon="12.009300"><ele>2105</ele><name>Passo Falzarego</name><desc>Summit — 2105 m</desc><sym>Summit</sym></wpt>
  <wpt lat="46.540500" lon="12.135700"><ele>1224</ele><name>Cortina d'Ampezzo</name><desc>Town — 1224 m</desc><sym>Summit</sym></wpt>
  <trk>
    <name>Dolomites: Bolzano to Cortina</name>
    <trkseg>
      <trkpt lat="46.498300" lon="11.354800"><ele>262.0</ele><time>2026-07-12T08:00:00Z</time></trkpt>
      <trkpt lat="46.498320" lon="11.356641"><ele>263.4</ele><time>2026-07-12T08:00:22Z</time></trkpt>
      <trkpt lat="46.498288" lon="11.358483"><ele>265.0</ele><time>2026-07-12T08:00:44Z</time></trkpt>
      <trkpt lat="46.498219" lon="11.360327"><ele>266.8</ele><time>2026-07-12T08:01:06Z</time></trkpt>
      <trkpt lat="46.498123" lon="11.362171"><ele>268.9</ele><time>2026-07-12T08:01:28Z</time></trkpt>
      <trkpt lat="46.498011" lon="11.364016"><ele>271.2</ele><time>2026-07-12T08:01:50Z</time></trkpt>
      <trkpt lat="46.497892" lon="11.365862"><ele>273.7</ele><time>2026-07-12T08:02:12Z</time></trkpt>
      <trkpt lat="46.497775" lon="11.367707"><ele>276.5</ele><time>2026-07-12T08:02:34Z</time></trkpt>
      <trkpt lat="46.497670" lon="11.369552"><ele>279.4</ele><time>2026-07-12T08:02:56Z</time></trkpt>
      <trkpt lat="46.497585" lon="11.371396"><ele>282.6</ele><time>2026-07-12T08:03:18Z</time></trkpt>
      <trkpt lat="46.497528" lon="11.373239"><ele>285.9</ele><time>2026-07-12T08:03:40Z</time></trkpt>
      <trkpt lat="46.497507" lon="11.375081"><ele>289.4</ele><time>2026-07-12T08:04:02Z</time></trkpt>
      <trkpt lat="46.497528" lon="11.376922"><ele>293.2</ele><time>2026-07-12T08:04:24Z</time></trkpt>
      <trkpt lat="46.497596" lon="11.378761"><ele>297.1</ele><time>2026-07-12T08:04:46Z</time></trkpt>
      <trkpt lat="46.497714" lon="11.380598"><ele>301.2</ele><time>2026-07-12T08:05:08Z</time></trkpt>
      <trkpt lat="46.497884" lon="11.382433"><ele>305.4</ele><time>2026-07-12T08:05:30Z</time></trkpt>
      <trkpt lat="46.498106" lon="11.384267"><ele>309.9</ele><time>2026-07-12T08:05:52Z</time></trkpt>
      <trkpt lat="46.498377" lon="11.386099"><ele>314.5</ele><time>2026-07-12T08:06:14Z</time></trkpt>
      <trkpt lat="46.498695" lon="11.387929"><ele>319.2</ele><time>2026-07-12T08:06:36Z</time></trkpt>
      <trkpt lat="46.499055" lon="11.389758"><ele>324.1</ele><time>2026-07-12T08:06:58Z</time></trkpt>
      <trkpt lat="46.499449" lon="11.391586"><ele>329.2</ele><time>2026-07-12T08:07:20Z</time></trkpt>
      <trkpt lat="46.499870" lon="11.393413"><ele>334.4</ele><time>2026-07-12T08:07:42Z</time></trkpt>
      <trkpt lat="46.500307" lon="11.395239"><ele>339.8</ele><time>2026-07-12T08:08:04Z</time></trkpt>
      <trkpt lat="46.500752" lon="11.397065"><ele>345.3</ele><time>2026-07-12T08:08:26Z</time></trkpt>
      <trkpt lat="46.501194" lon="11.398891"><ele>350.9</ele><time>2026-07-12T08:08:48Z</time></trkpt>
      <trkpt lat="46.501620" lon="11.400717"><ele>356.7</ele><time>2026-07-12T08:09:10Z</time></trkpt>
      <trkpt lat="46.502020" lon="11.402545"><ele>362.6</ele><time>2026-07-12T08:09:32Z</time></trkpt>
      <trkpt lat="46.502384" lon="11.404374"><ele>368.6</ele><time>2026-07-12T08:09:54Z</time></trkpt>
      <trkpt lat="46.502701" lon="11.406204"><ele>374.8</ele><time>2026-07-12T08:10:16Z</time></trkpt>
      <trkpt lat="46.502962" lon="11.408036"><ele>381.1</ele><time>2026-07-12T08:10:38Z</time></trkpt>
      <trkpt lat="46.503159" lon="11.409871"><ele>387.5</ele><time>2026-07-12T08:11:00Z</time></trkpt>
      <trkpt lat="46.503286" lon="11.411708"><ele>394.0</ele><time>2026-07-12T08:11:22Z</time></trkpt>
      <trkpt lat="46.503338" lon="11.413547"><ele>400.6</ele><time>2026-07-12T08:11:44Z</time></trkpt>
      <trkpt lat="46.503313" lon="11.415389"><ele>407.3</ele><time>2026-07-12T08:12:06Z</time></trkpt>
      <trkpt lat="46.503210" lon="11.417234"><ele>414.2</ele><time>2026-07-12T08:12:28Z</time></trkpt>
      <trkpt lat="46.503031" lon="11.419082"><ele>421.1</ele><time>2026-07-12T08:12:50Z</time></trkpt>
      <trkpt lat="46.502779" lon="11.420932"><ele>428.2</ele><time>2026-07-12T08:13:12Z</time></trkpt>
      <trkpt lat="46.502460" lon="11.422784"><ele>435.4</ele><time>2026-07-12T08:13:34Z</time></trkpt>
      <trkpt lat="46.502082" lon="11.424638"><ele>442.6</ele><time>2026-07-12T08:13:56Z</time></trkpt>
      <trkpt lat="46.501655" lon="11.426494"><ele>450.0</ele><time>2026-07-12T08:14:18Z</time></trkpt>
      <trkpt lat="46.501189" lon="11.428351"><ele>457.5</ele><time>2026-07-12T08:14:40Z</time></trkpt>
      <trkpt lat="46.500698" lon="11.430209"><ele>465.0</ele><time>2026-07-12T08:15:02Z</time></trkpt>
      <trkpt lat="46.500194" lon="11.432068"><ele>472.7</ele><time>2026-07-12T08:15:24Z</time></trkpt>
      <trkpt lat="46.499693" lon="11.433926"><ele>480.5</ele><time>2026-07-12T08:15:46Z</time></trkpt>
      <trkpt lat="46.499208" lon="11.435784"><ele>488.3</ele><time>2026-07-12T08:16:08Z</time></trkpt>
      <trkpt lat="46.498754" lon="11.437641"><ele>496.3</ele><time>2026-07-12T08:16:30Z</time></trkpt>
      <trkpt lat="46.498345" lon="11.439496"><ele>504.4</ele><time>2026-07-12T08:16:52Z</time></trkpt>
      <trkpt lat="46.497995" lon="11.441350"><ele>512.5</ele><time>2026-07-12T08:17:14Z</time></trkpt>
      <trkpt lat="46.497715" lon="11.443201"><ele>520.8</ele><time>2026-07-12T08:17:36Z</time></trkpt>
      <trkpt lat="46.497515" lon="11.445049"><ele>529.1</ele><time>2026-07-12T08:17:58Z</time></trkpt>
      <trkpt lat="46.497405" lon="11.446894"><ele>537.6</ele><time>2026-07-12T08:18:20Z</time></trkpt>
      <trkpt lat="46.497390" lon="11.448736"><ele>546.1</ele><time>2026-07-12T08:18:42Z</time></trkpt>
      <trkpt lat="46.497475" lon="11.450574"><ele>554.7</ele><time>2026-07-12T08:19:04Z</time></trkpt>
      <trkpt lat="46.497661" lon="11.452409"><ele>563.5</ele><time>2026-07-12T08:19:26Z</time></trkpt>
      <trkpt lat="46.497948" lon="11.454240"><ele>572.3</ele><time>2026-07-12T08:19:48Z</time></trkpt>
      <trkpt lat="46.498331" lon="11.456068"><ele>581.2</ele><time>2026-07-12T08:20:10Z</time></trkpt>
      <trkpt lat="46.498806" lon="11.457893"><ele>590.3</ele><time>2026-07-12T08:20:32Z</time></trkpt>
      <trkpt lat="46.499362" lon="11.459715"><ele>599.4</ele><time>2026-07-12T08:20:54Z</time></trkpt>
      <trkpt lat="46.499990" lon="11.461535"><ele>608.6</ele><time>2026-07-12T08:21:16Z</time></trkpt>
      <trkpt lat="46.500676" lon="11.463353"><ele>617.9</ele><time>2026-07-12T08:21:38Z</time></trkpt>
      <trkpt lat="46.501407" lon="11.465169"><ele>627.4</ele><time>2026-07-12T08:22:00Z</time></trkpt>
      <trkpt lat="46.502165" lon="11.466984"><ele>636.9</ele><time>2026-07-12T08:22:22Z</time></trkpt>
      <trkpt lat="46.502936" lon="11.468799"><ele>646.6</ele><time>2026-07-12T08:22:44Z</time></trkpt>
      <trkpt lat="46.503701" lon="11.470614"><ele>656.3</ele><time>2026-07-12T08:23:06Z</time></trkpt>
      <trkpt lat="46.504442" lon="11.472430"><ele>666.1</ele><time>2026-07-12T08:23:28Z</time></trkpt>
      <trkpt lat="46.505143" lon="11.474247"><ele>676.1</ele><time>2026-07-12T08:23:50Z</time></trkpt>
      <trkpt lat="46.505787" lon="11.476066"><ele>686.2</ele><time>2026-07-12T08:24:12Z</time></trkpt>
      <trkpt lat="46.506359" lon="11.477888"><ele>696.3</ele><time>2026-07-12T08:24:34Z</time></trkpt>
      <trkpt lat="46.506845" lon="11.479712"><ele>706.6</ele><time>2026-07-12T08:24:56Z</time></trkpt>
      <trkpt lat="46.507234" lon="11.481540"><ele>717.0</ele><time>2026-07-12T08:25:18Z</time></trkpt>
      <trkpt lat="46.507517" lon="11.483372"><ele>727.5</ele><time>2026-07-12T08:25:40Z</time></trkpt>
      <trkpt lat="46.507686" lon="11.485207"><ele>738.1</ele><time>2026-07-12T08:26:02Z</time></trkpt>
      <trkpt lat="46.507738" lon="11.487047"><ele>748.8</ele><time>2026-07-12T08:26:24Z</time></trkpt>
      <trkpt lat="46.507671" lon="11.488890"><ele>759.7</ele><time>2026-07-12T08:26:46Z</time></trkpt>
      <trkpt lat="46.507488" lon="11.490738"><ele>770.6</ele><time>2026-07-12T08:27:08Z</time></trkpt>
      <trkpt lat="46.507192" lon="11.492589"><ele>781.7</ele><time>2026-07-12T08:27:30Z</time></trkpt>
      <trkpt lat="46.506793" lon="11.494444"><ele>792.9</ele><time>2026-07-12T08:27:52Z</time></trkpt>
      <trkpt lat="46.506299" lon="11.496302"><ele>804.2</ele><time>2026-07-12T08:28:14Z</time></trkpt>
      <trkpt lat="46.505724" lon="11.498163"><ele>815.6</ele><time>2026-07-12T08:28:36Z</time></trkpt>
      <trkpt lat="46.505082" lon="11.500027"><ele>827.1</ele><time>2026-07-12T08:28:58Z</time></trkpt>
      <trkpt lat="46.504390" lon="11.501892"><ele>838.7</ele><time>2026-07-12T08:29:20Z</time></trkpt>
      <trkpt lat="46.503667" lon="11.503758"><ele>850.5</ele><time>2026-07-12T08:29:42Z</time></trkpt>
      <trkpt lat="46.502930" lon="11.505624"><ele>862.3</ele><time>2026-07-12T08:30:04Z</time></trkpt>
      <trkpt lat="46.502200" lon="11.507491"><ele>874.3</ele><time>2026-07-12T08:30:26Z</time></trkpt>
      <trkpt lat="46.501496" lon="11.509356"><ele>886.4</ele><time>2026-07-12T08:30:48Z</time></trkpt>
      <trkpt lat="46.500836" lon="11.511220"><ele>898.6</ele><time>2026-07-12T08:31:10Z</time></trkpt>
      <trkpt lat="46.500240" lon="11.513082"><ele>910.9</ele><time>2026-07-12T08:31:32Z</time></trkpt>
      <trkpt lat="46.499723" lon="11.514941"><ele>923.3</ele><time>2026-07-12T08:31:54Z</time></trkpt>
      <trkpt lat="46.499300" lon="11.516797"><ele>935.9</ele><time>2026-07-12T08:32:16Z</time></trkpt>
      <trkpt lat="46.498984" lon="11.518649"><ele>948.5</ele><time>2026-07-12T08:32:38Z</time></trkpt>
      <trkpt lat="46.498785" lon="11.520497"><ele>961.3</ele><time>2026-07-12T08:33:00Z</time></trkpt>
      <trkpt lat="46.498709" lon="11.522341"><ele>974.1</ele><time>2026-07-12T08:33:22Z</time></trkpt>
      <trkpt lat="46.498761" lon="11.524180"><ele>987.1</ele><time>2026-07-12T08:33:44Z</time></trkpt>
      <trkpt lat="46.498941" lon="11.526015"><ele>1000.1</ele><time>2026-07-12T08:34:06Z</time></trkpt>
      <trkpt lat="46.499248" lon="11.527846"><ele>1013.3</ele><time>2026-07-12T08:34:28Z</time></trkpt>
      <trkpt lat="46.499676" lon="11.529673"><ele>1026.6</ele><time>2026-07-12T08:34:50Z</time></trkpt>
      <trkpt lat="46.500217" lon="11.531495"><ele>1039.9</ele><time>2026-07-12T08:35:12Z</time></trkpt>
      <trkpt lat="46.500860" lon="11.533314"><ele>1053.4</ele><time>2026-07-12T08:35:34Z</time></trkpt>
      <trkpt lat="46.501590" lon="11.535131"><ele>1066.9</ele><time>2026-07-12T08:35:56Z</time></trkpt>
      <trkpt lat="46.502393" lon="11.536944"><ele>1080.5</ele><time>2026-07-12T08:36:18Z</time></trkpt>
      <trkpt lat="46.503250" lon="11.538756"><ele>1094.3</ele><time>2026-07-12T08:36:40Z</time></trkpt>
      <trkpt lat="46.504142" lon="11.540567"><ele>1108.1</ele><time>2026-07-12T08:37:02Z</time></trkpt>
      <trkpt lat="46.505049" lon="11.542377"><ele>1121.9</ele><time>2026-07-12T08:37:24Z</time></trkpt>
      <trkpt lat="46.505951" lon="11.544187"><ele>1135.9</ele><time>2026-07-12T08:37:46Z</time></trkpt>
      <trkpt lat="46.506827" lon="11.545998"><ele>1149.9</ele><time>2026-07-12T08:38:08Z</time></trkpt>
      <trkpt lat="46.507657" lon="11.547811"><ele>1164.0</ele><time>2026-07-12T08:38:30Z</time></trkpt>
      <trkpt lat="46.508423" lon="11.549626"><ele>1178.2</ele><time>2026-07-12T08:38:52Z</time></trkpt>
      <trkpt lat="46.509108" lon="11.551444"><ele>1192.4</ele><time>2026-07-12T08:39:14Z</time></trkpt>
      <trkpt lat="46.509696" lon="11.553265"><ele>1206.7</ele><time>2026-07-12T08:39:36Z</time></trkpt>
      <trkpt lat="46.510175" lon="11.555090"><ele>1221.0</ele><time>2026-07-12T08:39:58Z</time></trkpt>
      <trkpt lat="46.510535" lon="11.556918"><ele>1235.4</ele><time>2026-07-12T08:40:20Z</time></trkpt>
      <trkpt lat="46.510767" lon="11.558752"><ele>1249.8</ele><time>2026-07-12T08:40:42Z</time></trkpt>
      <trkpt lat="46.510869" lon="11.560589"><ele>1264.2</ele><time>2026-07-12T08:41:04Z</time></trkpt>
      <trkpt lat="46.510839" lon="11.562432"><ele>1278.7</ele><time>2026-07-12T08:41:26Z</time></trkpt>
      <trkpt lat="46.510680" lon="11.564279"><ele>1293.3</ele><time>2026-07-12T08:41:48Z</time></trkpt>
      <trkpt lat="46.510397" lon="11.566129"><ele>1307.8</ele><time>2026-07-12T08:42:10Z</time></trkpt>
      <trkpt lat="46.509999" lon="11.567984"><ele>1322.4</ele><time>2026-07-12T08:42:32Z</time></trkpt>
      <trkpt lat="46.509496" lon="11.569843"><ele>1337.0</ele><time>2026-07-12T08:42:54Z</time></trkpt>
      <trkpt lat="46.508904" lon="11.571705"><ele>1351.6</ele><time>2026-07-12T08:43:16Z</time></trkpt>
      <trkpt lat="46.508238" lon="11.573569"><ele>1366.2</ele><time>2026-07-12T08:43:38Z</time></trkpt>
      <trkpt lat="46.507516" lon="11.575435"><ele>1380.8</ele><time>2026-07-12T08:44:00Z</time></trkpt>
      <trkpt lat="46.506757" lon="11.577302"><ele>1395.4</ele><time>2026-07-12T08:44:22Z</time></trkpt>
      <trkpt lat="46.505981" lon="11.579170"><ele>1410.0</ele><time>2026-07-12T08:44:44Z</time></trkpt>
      <trkpt lat="46.505209" lon="11.581038"><ele>1424.5</ele><time>2026-07-12T08:45:06Z</time></trkpt>
      <trkpt lat="46.504460" lon="11.582905"><ele>1439.1</ele><time>2026-07-12T08:45:28Z</time></trkpt>
      <trkpt lat="46.503755" lon="11.584770"><ele>1453.6</ele><time>2026-07-12T08:45:50Z</time></trkpt>
      <trkpt lat="46.503112" lon="11.586634"><ele>1468.1</ele><time>2026-07-12T08:46:12Z</time></trkpt>
      <trkpt lat="46.502547" lon="11.588494"><ele>1482.6</ele><time>2026-07-12T08:46:34Z</time></trkpt>
      <trkpt lat="46.502076" lon="11.590352"><ele>1497.0</ele><time>2026-07-12T08:46:56Z</time></trkpt>
      <trkpt lat="46.501710" lon="11.592206"><ele>1511.4</ele><time>2026-07-12T08:47:18Z</time></trkpt>
      <trkpt lat="46.501461" lon="11.594055"><ele>1525.7</ele><time>2026-07-12T08:47:40Z</time></trkpt>
      <trkpt lat="46.501334" lon="11.595901"><ele>1539.9</ele><time>2026-07-12T08:48:02Z</time></trkpt>
      <trkpt lat="46.501334" lon="11.597742"><ele>1554.1</ele><time>2026-07-12T08:48:24Z</time></trkpt>
      <trkpt lat="46.501461" lon="11.599579"><ele>1568.3</ele><time>2026-07-12T08:48:46Z</time></trkpt>
      <trkpt lat="46.501714" lon="11.601412"><ele>1582.3</ele><time>2026-07-12T08:49:08Z</time></trkpt>
      <trkpt lat="46.502085" lon="11.603240"><ele>1596.3</ele><time>2026-07-12T08:49:30Z</time></trkpt>
      <trkpt lat="46.502568" lon="11.605065"><ele>1610.2</ele><time>2026-07-12T08:49:52Z</time></trkpt>
      <trkpt lat="46.503151" lon="11.606886"><ele>1624.0</ele><time>2026-07-12T08:50:14Z</time></trkpt>
      <trkpt lat="46.503821" lon="11.608704"><ele>1637.7</ele><time>2026-07-12T08:50:36Z</time></trkpt>
      <trkpt lat="46.504563" lon="11.610520"><ele>1651.3</ele><time>2026-07-12T08:50:58Z</time></trkpt>
      <trkpt lat="46.505358" lon="11.612334"><ele>1664.8</ele><time>2026-07-12T08:51:20Z</time></trkpt>
      <trkpt lat="46.506190" lon="11.614147"><ele>1678.2</ele><time>2026-07-12T08:51:42Z</time></trkpt>
      <trkpt lat="46.507039" lon="11.615959"><ele>1691.5</ele><time>2026-07-12T08:52:04Z</time></trkpt>
      <trkpt lat="46.507886" lon="11.617771"><ele>1704.6</ele><time>2026-07-12T08:52:26Z</time></trkpt>
      <trkpt lat="46.508711" lon="11.619584"><ele>1717.7</ele><time>2026-07-12T08:52:48Z</time></trkpt>
      <trkpt lat="46.509498" lon="11.621398"><ele>1730.6</ele><time>2026-07-12T08:53:10Z</time></trkpt>
      <trkpt lat="46.510227" lon="11.623214"><ele>1743.4</ele><time>2026-07-12T08:53:32Z</time></trkpt>
      <trkpt lat="46.510885" lon="11.625033"><ele>1756.0</ele><time>2026-07-12T08:53:54Z</time></trkpt>
      <trkpt lat="46.511457" lon="11.626855"><ele>1768.6</ele><time>2026-07-12T08:54:16Z</time></trkpt>
      <trkpt lat="46.511931" lon="11.628680"><ele>1780.9</ele><time>2026-07-12T08:54:38Z</time></trkpt>
      <trkpt lat="46.512300" lon="11.630508"><ele>1793.2</ele><time>2026-07-12T08:55:00Z</time></trkpt>
      <trkpt lat="46.512556" lon="11.632341"><ele>1805.3</ele><time>2026-07-12T08:55:22Z</time></trkpt>
      <trkpt lat="46.512698" lon="11.634177"><ele>1817.2</ele><time>2026-07-12T08:55:44Z</time></trkpt>
      <trkpt lat="46.512723" lon="11.636018"><ele>1829.0</ele><time>2026-07-12T08:56:06Z</time></trkpt>
      <trkpt lat="46.512635" lon="11.637862"><ele>1840.6</ele><time>2026-07-12T08:56:28Z</time></trkpt>
      <trkpt lat="46.512439" lon="11.639710"><ele>1852.1</ele><time>2026-07-12T08:56:50Z</time></trkpt>
      <trkpt lat="46.512143" lon="11.641561"><ele>1863.4</ele><time>2026-07-12T08:57:12Z</time></trkpt>
      <trkpt lat="46.511757" lon="11.643416"><ele>1874.5</ele><time>2026-07-12T08:57:34Z</time></trkpt>
      <trkpt lat="46.511294" lon="11.645273"><ele>1885.5</ele><time>2026-07-12T08:57:56Z</time></trkpt>
      <trkpt lat="46.510767" lon="11.647132"><ele>1896.3</ele><time>2026-07-12T08:58:18Z</time></trkpt>
      <trkpt lat="46.510191" lon="11.648993"><ele>1906.9</ele><time>2026-07-12T08:58:40Z</time></trkpt>
      <trkpt lat="46.509584" lon="11.650855"><ele>1917.3</ele><time>2026-07-12T08:59:02Z</time></trkpt>
      <trkpt lat="46.508963" lon="11.652718"><ele>1927.6</ele><time>2026-07-12T08:59:24Z</time></trkpt>
      <trkpt lat="46.508343" lon="11.654581"><ele>1937.7</ele><time>2026-07-12T08:59:46Z</time></trkpt>
      <trkpt lat="46.507742" lon="11.656442"><ele>1947.6</ele><time>2026-07-12T09:00:08Z</time></trkpt>
      <trkpt lat="46.507177" lon="11.658303"><ele>1957.4</ele><time>2026-07-12T09:00:30Z</time></trkpt>
      <trkpt lat="46.506660" lon="11.660162"><ele>1966.9</ele><time>2026-07-12T09:00:52Z</time></trkpt>
      <trkpt lat="46.506207" lon="11.662019"><ele>1976.3</ele><time>2026-07-12T09:01:14Z</time></trkpt>
      <trkpt lat="46.505828" lon="11.663873"><ele>1985.5</ele><time>2026-07-12T09:01:36Z</time></trkpt>
      <trkpt lat="46.505532" lon="11.665725"><ele>1994.5</ele><time>2026-07-12T09:01:58Z</time></trkpt>
      <trkpt lat="46.505327" lon="11.667573"><ele>2003.4</ele><time>2026-07-12T09:02:20Z</time></trkpt>
      <trkpt lat="46.505218" lon="11.669418"><ele>2012.0</ele><time>2026-07-12T09:02:42Z</time></trkpt>
      <trkpt lat="46.505206" lon="11.671260"><ele>2020.5</ele><time>2026-07-12T09:03:04Z</time></trkpt>
      <trkpt lat="46.505291" lon="11.673098"><ele>2028.8</ele><time>2026-07-12T09:03:26Z</time></trkpt>
      <trkpt lat="46.505470" lon="11.674933"><ele>2036.9</ele><time>2026-07-12T09:03:48Z</time></trkpt>
      <trkpt lat="46.505738" lon="11.676765"><ele>2044.8</ele><time>2026-07-12T09:04:10Z</time></trkpt>
      <trkpt lat="46.506088" lon="11.678594"><ele>2052.5</ele><time>2026-07-12T09:04:32Z</time></trkpt>
      <trkpt lat="46.506511" lon="11.680421"><ele>2060.0</ele><time>2026-07-12T09:04:54Z</time></trkpt>
      <trkpt lat="46.506995" lon="11.682246"><ele>2067.4</ele><time>2026-07-12T09:05:16Z</time></trkpt>
      <trkpt lat="46.507529" lon="11.684069"><ele>2074.6</ele><time>2026-07-12T09:05:38Z</time></trkpt>
      <trkpt lat="46.508098" lon="11.685890"><ele>2081.6</ele><time>2026-07-12T09:06:00Z</time></trkpt>
      <trkpt lat="46.508691" lon="11.687711"><ele>2088.4</ele><time>2026-07-12T09:06:22Z</time></trkpt>
      <trkpt lat="46.509292" lon="11.689532"><ele>2095.0</ele><time>2026-07-12T09:06:44Z</time></trkpt>
      <trkpt lat="46.509888" lon="11.691353"><ele>2101.5</ele><time>2026-07-12T09:07:06Z</time></trkpt>
      <trkpt lat="46.510465" lon="11.693174"><ele>2107.7</ele><time>2026-07-12T09:07:28Z</time></trkpt>
      <trkpt lat="46.511011" lon="11.694997"><ele>2113.8</ele><time>2026-07-12T09:07:50Z</time></trkpt>
      <trkpt lat="46.511515" lon="11.696821"><ele>2119.7</ele><time>2026-07-12T09:08:12Z</time></trkpt>
      <trkpt lat="46.511967" lon="11.698646"><ele>2125.5</ele><time>2026-07-12T09:08:34Z</time></trkpt>
      <trkpt lat="46.512359" lon="11.700474"><ele>2131.0</ele><time>2026-07-12T09:08:56Z</time></trkpt>
      <trkpt lat="46.512684" lon="11.702304"><ele>2136.4</ele><time>2026-07-12T09:09:18Z</time></trkpt>
      <trkpt lat="46.512939" lon="11.704137"><ele>2141.6</ele><time>2026-07-12T09:09:40Z</time></trkpt>
      <trkpt lat="46.513120" lon="11.705972"><ele>2146.6</ele><time>2026-07-12T09:10:02Z</time></trkpt>
      <trkpt lat="46.513229" lon="11.707809"><ele>2151.5</ele><time>2026-07-12T09:10:24Z</time></trkpt>
      <trkpt lat="46.513266" lon="11.709649"><ele>2156.2</ele><time>2026-07-12T09:10:46Z</time></trkpt>
      <trkpt lat="46.513235" lon="11.711492"><ele>2160.7</ele><time>2026-07-12T09:11:08Z</time></trkpt>
      <trkpt lat="46.513143" lon="11.713336"><ele>2165.0</ele><time>2026-07-12T09:11:30Z</time></trkpt>
      <trkpt lat="46.512995" lon="11.715182"><ele>2169.2</ele><time>2026-07-12T09:11:52Z</time></trkpt>
      <trkpt lat="46.512801" lon="11.717030"><ele>2173.2</ele><time>2026-07-12T09:12:14Z</time></trkpt>
      <trkpt lat="46.512570" lon="11.718880"><ele>2177.1</ele><time>2026-07-12T09:12:36Z</time></trkpt>
      <trkpt lat="46.512311" lon="11.720730"><ele>2180.7</ele><time>2026-07-12T09:12:58Z</time></trkpt>
      <trkpt lat="46.512036" lon="11.722580"><ele>2184.2</ele><time>2026-07-12T09:13:20Z</time></trkpt>
      <trkpt lat="46.511754" lon="11.724431"><ele>2187.6</ele><time>2026-07-12T09:13:42Z</time></trkpt>
      <trkpt lat="46.511477" lon="11.726282"><ele>2190.7</ele><time>2026-07-12T09:14:04Z</time></trkpt>
      <trkpt lat="46.511213" lon="11.728132"><ele>2193.7</ele><time>2026-07-12T09:14:26Z</time></trkpt>
      <trkpt lat="46.510973" lon="11.729982"><ele>2196.6</ele><time>2026-07-12T09:14:48Z</time></trkpt>
      <trkpt lat="46.510764" lon="11.731830"><ele>2199.2</ele><time>2026-07-12T09:15:10Z</time></trkpt>
      <trkpt lat="46.510592" lon="11.733678"><ele>2201.8</ele><time>2026-07-12T09:15:32Z</time></trkpt>
      <trkpt lat="46.510463" lon="11.735523"><ele>2204.1</ele><time>2026-07-12T09:15:54Z</time></trkpt>
      <trkpt lat="46.510380" lon="11.737367"><ele>2206.3</ele><time>2026-07-12T09:16:16Z</time></trkpt>
      <trkpt lat="46.510345" lon="11.739210"><ele>2208.3</ele><time>2026-07-12T09:16:38Z</time></trkpt>
      <trkpt lat="46.510358" lon="11.741051"><ele>2210.1</ele><time>2026-07-12T09:17:00Z</time></trkpt>
      <trkpt lat="46.510418" lon="11.742890"><ele>2211.8</ele><time>2026-07-12T09:17:22Z</time></trkpt>
      <trkpt lat="46.510522" lon="11.744728"><ele>2213.3</ele><time>2026-07-12T09:17:44Z</time></trkpt>
      <trkpt lat="46.510665" lon="11.746564"><ele>2214.6</ele><time>2026-07-12T09:18:06Z</time></trkpt>
      <trkpt lat="46.510841" lon="11.748399"><ele>2215.7</ele><time>2026-07-12T09:18:28Z</time></trkpt>
      <trkpt lat="46.511043" lon="11.750233"><ele>2216.7</ele><time>2026-07-12T09:18:50Z</time></trkpt>
      <trkpt lat="46.511264" lon="11.752067"><ele>2217.5</ele><time>2026-07-12T09:19:12Z</time></trkpt>
      <trkpt lat="46.511494" lon="11.753900"><ele>2218.2</ele><time>2026-07-12T09:19:34Z</time></trkpt>
      <trkpt lat="46.511726" lon="11.755734"><ele>2218.6</ele><time>2026-07-12T09:19:56Z</time></trkpt>
      <trkpt lat="46.511953" lon="11.757567"><ele>2218.9</ele><time>2026-07-12T09:20:18Z</time></trkpt>
      <trkpt lat="46.512200" lon="11.759400"><ele>2244.0</ele><time>2026-07-12T09:20:40Z</time></trkpt>
      <trkpt lat="46.512050" lon="11.759625"><ele>2245.2</ele><time>2026-07-12T09:21:02Z</time></trkpt>
      <trkpt lat="46.511853" lon="11.759829"><ele>2246.5</ele><time>2026-07-12T09:21:24Z</time></trkpt>
      <trkpt lat="46.511622" lon="11.760017"><ele>2247.7</ele><time>2026-07-12T09:21:46Z</time></trkpt>
      <trkpt lat="46.511367" lon="11.760195"><ele>2249.0</ele><time>2026-07-12T09:22:08Z</time></trkpt>
      <trkpt lat="46.511097" lon="11.760366"><ele>2250.2</ele><time>2026-07-12T09:22:30Z</time></trkpt>
      <trkpt lat="46.510821" lon="11.760534"><ele>2251.4</ele><time>2026-07-12T09:22:52Z</time></trkpt>
      <trkpt lat="46.510546" lon="11.760702"><ele>2252.6</ele><time>2026-07-12T09:23:14Z</time></trkpt>
      <trkpt lat="46.510282" lon="11.760876"><ele>2253.7</ele><time>2026-07-12T09:23:36Z</time></trkpt>
      <trkpt lat="46.510036" lon="11.761057"><ele>2254.8</ele><time>2026-07-12T09:23:58Z</time></trkpt>
      <trkpt lat="46.509817" lon="11.761251"><ele>2256.0</ele><time>2026-07-12T09:24:20Z</time></trkpt>
      <trkpt lat="46.509630" lon="11.761459"><ele>2257.0</ele><time>2026-07-12T09:24:42Z</time></trkpt>
      <trkpt lat="46.509481" lon="11.761685"><ele>2258.1</ele><time>2026-07-12T09:25:04Z</time></trkpt>
      <trkpt lat="46.509375" lon="11.761930"><ele>2259.1</ele><time>2026-07-12T09:25:26Z</time></trkpt>
      <trkpt lat="46.509314" lon="11.762196"><ele>2260.0</ele><time>2026-07-12T09:25:48Z</time></trkpt>
      <trkpt lat="46.509301" lon="11.762483"><ele>2261.0</ele><time>2026-07-12T09:26:10Z</time></trkpt>
      <trkpt lat="46.509335" lon="11.762792"><ele>2261.9</ele><time>2026-07-12T09:26:32Z</time></trkpt>
      <trkpt lat="46.509414" lon="11.763122"><ele>2262.7</ele><time>2026-07-12T09:26:54Z</time></trkpt>
      <trkpt lat="46.509536" lon="11.763470"><ele>2263.5</ele><time>2026-07-12T09:27:16Z</time></trkpt>
      <trkpt lat="46.509695" lon="11.763836"><ele>2264.2</ele><time>2026-07-12T09:27:38Z</time></trkpt>
      <trkpt lat="46.509886" lon="11.764216"><ele>2264.9</ele><time>2026-07-12T09:28:00Z</time></trkpt>
      <trkpt lat="46.510102" lon="11.764607"><ele>2265.6</ele><time>2026-07-12T09:28:22Z</time></trkpt>
      <trkpt lat="46.510332" lon="11.765005"><ele>2266.1</ele><time>2026-07-12T09:28:44Z</time></trkpt>
      <trkpt lat="46.510570" lon="11.765407"><ele>2266.7</ele><time>2026-07-12T09:29:06Z</time></trkpt>
      <trkpt lat="46.510804" lon="11.765806"><ele>2267.1</ele><time>2026-07-12T09:29:28Z</time></trkpt>
      <trkpt lat="46.511024" lon="11.766200"><ele>2267.5</ele><time>2026-07-12T09:29:50Z</time></trkpt>
      <trkpt lat="46.511221" lon="11.766582"><ele>2267.9</ele><time>2026-07-12T09:30:12Z</time></trkpt>
      <trkpt lat="46.511384" lon="11.766950"><ele>2268.2</ele><time>2026-07-12T09:30:34Z</time></trkpt>
      <trkpt lat="46.511505" lon="11.767298"><ele>2268.4</ele><time>2026-07-12T09:30:56Z</time></trkpt>
      <trkpt lat="46.511575" lon="11.767623"><ele>2268.6</ele><time>2026-07-12T09:31:18Z</time></trkpt>
      <trkpt lat="46.511586" lon="11.767922"><ele>2268.7</ele><time>2026-07-12T09:31:40Z</time></trkpt>
      <trkpt lat="46.511534" lon="11.768191"><ele>2268.7</ele><time>2026-07-12T09:32:02Z</time></trkpt>
      <trkpt lat="46.511413" lon="11.768430"><ele>2268.7</ele><time>2026-07-12T09:32:24Z</time></trkpt>
      <trkpt lat="46.511222" lon="11.768637"><ele>2268.6</ele><time>2026-07-12T09:32:46Z</time></trkpt>
      <trkpt lat="46.510961" lon="11.768811"><ele>2268.5</ele><time>2026-07-12T09:33:08Z</time></trkpt>
      <trkpt lat="46.510629" lon="11.768954"><ele>2268.3</ele><time>2026-07-12T09:33:30Z</time></trkpt>
      <trkpt lat="46.510232" lon="11.769067"><ele>2268.0</ele><time>2026-07-12T09:33:52Z</time></trkpt>
      <trkpt lat="46.509773" lon="11.769152"><ele>2267.7</ele><time>2026-07-12T09:34:14Z</time></trkpt>
      <trkpt lat="46.509261" lon="11.769212"><ele>2267.3</ele><time>2026-07-12T09:34:36Z</time></trkpt>
      <trkpt lat="46.508704" lon="11.769253"><ele>2266.8</ele><time>2026-07-12T09:34:58Z</time></trkpt>
      <trkpt lat="46.508111" lon="11.769277"><ele>2266.3</ele><time>2026-07-12T09:35:20Z</time></trkpt>
      <trkpt lat="46.507496" lon="11.769291"><ele>2265.7</ele><time>2026-07-12T09:35:42Z</time></trkpt>
      <trkpt lat="46.506869" lon="11.769299"><ele>2265.1</ele><time>2026-07-12T09:36:04Z</time></trkpt>
      <trkpt lat="46.506244" lon="11.769309"><ele>2264.4</ele><time>2026-07-12T09:36:26Z</time></trkpt>
      <trkpt lat="46.505634" lon="11.769325"><ele>2263.7</ele><time>2026-07-12T09:36:48Z</time></trkpt>
      <trkpt lat="46.505053" lon="11.769355"><ele>2262.9</ele><time>2026-07-12T09:37:10Z</time></trkpt>
      <trkpt lat="46.504513" lon="11.769402"><ele>2262.1</ele><time>2026-07-12T09:37:32Z</time></trkpt>
      <trkpt lat="46.504025" lon="11.769474"><ele>2261.2</ele><time>2026-07-12T09:37:54Z</time></trkpt>
      <trkpt lat="46.503602" lon="11.769576"><ele>2260.3</ele><time>2026-07-12T09:38:16Z</time></trkpt>
      <trkpt lat="46.503252" lon="11.769710"><ele>2259.3</ele><time>2026-07-12T09:38:38Z</time></trkpt>
      <trkpt lat="46.502984" lon="11.769881"><ele>2258.3</ele><time>2026-07-12T09:39:00Z</time></trkpt>
      <trkpt lat="46.502802" lon="11.770092"><ele>2257.3</ele><time>2026-07-12T09:39:22Z</time></trkpt>
      <trkpt lat="46.502712" lon="11.770345"><ele>2256.2</ele><time>2026-07-12T09:39:44Z</time></trkpt>
      <trkpt lat="46.502713" lon="11.770639"><ele>2255.1</ele><time>2026-07-12T09:40:06Z</time></trkpt>
      <trkpt lat="46.502807" lon="11.770974"><ele>2253.9</ele><time>2026-07-12T09:40:28Z</time></trkpt>
      <trkpt lat="46.502988" lon="11.771350"><ele>2252.8</ele><time>2026-07-12T09:40:50Z</time></trkpt>
      <trkpt lat="46.503252" lon="11.771763"><ele>2251.6</ele><time>2026-07-12T09:41:12Z</time></trkpt>
      <trkpt lat="46.503591" lon="11.772211"><ele>2250.4</ele><time>2026-07-12T09:41:34Z</time></trkpt>
      <trkpt lat="46.503994" lon="11.772687"><ele>2249.1</ele><time>2026-07-12T09:41:56Z</time></trkpt>
      <trkpt lat="46.504452" lon="11.773188"><ele>2247.9</ele><time>2026-07-12T09:42:18Z</time></trkpt>
      <trkpt lat="46.504949" lon="11.773708"><ele>2246.6</ele><time>2026-07-12T09:42:40Z</time></trkpt>
      <trkpt lat="46.505473" lon="11.774239"><ele>2245.3</ele><time>2026-07-12T09:43:02Z</time></trkpt>
      <trkpt lat="46.506007" lon="11.774775"><ele>2244.1</ele><time>2026-07-12T09:43:24Z</time></trkpt>
      <trkpt lat="46.506535" lon="11.775308"><ele>2242.8</ele><time>2026-07-12T09:43:46Z</time></trkpt>
      <trkpt lat="46.507042" lon="11.775832"><ele>2241.5</ele><time>2026-07-12T09:44:08Z</time></trkpt>
      <trkpt lat="46.507513" lon="11.776339"><ele>2240.2</ele><time>2026-07-12T09:44:30Z</time></trkpt>
      <trkpt lat="46.507932" lon="11.776822"><ele>2239.0</ele><time>2026-07-12T09:44:52Z</time></trkpt>
      <trkpt lat="46.508285" lon="11.777276"><ele>2237.7</ele><time>2026-07-12T09:45:14Z</time></trkpt>
      <trkpt lat="46.508560" lon="11.777694"><ele>2236.5</ele><time>2026-07-12T09:45:36Z</time></trkpt>
      <trkpt lat="46.508746" lon="11.778072"><ele>2235.2</ele><time>2026-07-12T09:45:58Z</time></trkpt>
      <trkpt lat="46.508835" lon="11.778406"><ele>2234.0</ele><time>2026-07-12T09:46:20Z</time></trkpt>
      <trkpt lat="46.508822" lon="11.778693"><ele>2232.8</ele><time>2026-07-12T09:46:42Z</time></trkpt>
      <trkpt lat="46.508701" lon="11.778932"><ele>2231.7</ele><time>2026-07-12T09:47:04Z</time></trkpt>
      <trkpt lat="46.508472" lon="11.779121"><ele>2230.5</ele><time>2026-07-12T09:47:26Z</time></trkpt>
      <trkpt lat="46.508137" lon="11.779263"><ele>2229.4</ele><time>2026-07-12T09:47:48Z</time></trkpt>
      <trkpt lat="46.507700" lon="11.779357"><ele>2228.4</ele><time>2026-07-12T09:48:10Z</time></trkpt>
      <trkpt lat="46.507168" lon="11.779409"><ele>2227.3</ele><time>2026-07-12T09:48:32Z</time></trkpt>
      <trkpt lat="46.506550" lon="11.779422"><ele>2226.3</ele><time>2026-07-12T09:48:54Z</time></trkpt>
      <trkpt lat="46.505858" lon="11.779401"><ele>2225.4</ele><time>2026-07-12T09:49:16Z</time></trkpt>
      <trkpt lat="46.505105" lon="11.779352"><ele>2224.4</ele><time>2026-07-12T09:49:38Z</time></trkpt>
      <trkpt lat="46.504307" lon="11.779283"><ele>2223.6</ele><time>2026-07-12T09:50:00Z</time></trkpt>
      <trkpt lat="46.503480" lon="11.779201"><ele>2222.8</ele><time>2026-07-12T09:50:22Z</time></trkpt>
      <trkpt lat="46.502641" lon="11.779113"><ele>2222.0</ele><time>2026-07-12T09:50:44Z</time></trkpt>
      <trkpt lat="46.501808" lon="11.779028"><ele>2221.3</ele><time>2026-07-12T09:51:06Z</time></trkpt>
      <trkpt lat="46.500998" lon="11.778954"><ele>2220.6</ele><time>2026-07-12T09:51:28Z</time></trkpt>
      <trkpt lat="46.500230" lon="11.778898"><ele>2220.0</ele><time>2026-07-12T09:51:50Z</time></trkpt>
      <trkpt lat="46.499518" lon="11.778868"><ele>2219.4</ele><time>2026-07-12T09:52:12Z</time></trkpt>
      <trkpt lat="46.498879" lon="11.778871"><ele>2218.9</ele><time>2026-07-12T09:52:34Z</time></trkpt>
      <trkpt lat="46.498326" lon="11.778913"><ele>2218.4</ele><time>2026-07-12T09:52:56Z</time></trkpt>
      <trkpt lat="46.497870" lon="11.779000"><ele>2218.1</ele><time>2026-07-12T09:53:18Z</time></trkpt>
      <trkpt lat="46.497520" lon="11.779134"><ele>2217.7</ele><time>2026-07-12T09:53:40Z</time></trkpt>
      <trkpt lat="46.497283" lon="11.779320"><ele>2217.5</ele><time>2026-07-12T09:54:02Z</time></trkpt>
      <trkpt lat="46.497162" lon="11.779558"><ele>2217.3</ele><time>2026-07-12T09:54:24Z</time></trkpt>
      <trkpt lat="46.497159" lon="11.779850"><ele>2217.1</ele><time>2026-07-12T09:54:46Z</time></trkpt>
      <trkpt lat="46.497270" lon="11.780194"><ele>2217.0</ele><time>2026-07-12T09:55:08Z</time></trkpt>
      <trkpt lat="46.497492" lon="11.780588"><ele>2217.0</ele><time>2026-07-12T09:55:30Z</time></trkpt>
      <trkpt lat="46.497817" lon="11.781029"><ele>2217.1</ele><time>2026-07-12T09:55:52Z</time></trkpt>
      <trkpt lat="46.498235" lon="11.781512"><ele>2217.2</ele><time>2026-07-12T09:56:14Z</time></trkpt>
      <trkpt lat="46.498732" lon="11.782031"><ele>2217.3</ele><time>2026-07-12T09:56:36Z</time></trkpt>
      <trkpt lat="46.499295" lon="11.782580"><ele>2217.6</ele><time>2026-07-12T09:56:58Z</time></trkpt>
      <trkpt lat="46.499908" lon="11.783152"><ele>2217.9</ele><time>2026-07-12T09:57:20Z</time></trkpt>
      <trkpt lat="46.500553" lon="11.783738"><ele>2218.2</ele><time>2026-07-12T09:57:42Z</time></trkpt>
      <trkpt lat="46.501211" lon="11.784331"><ele>2218.6</ele><time>2026-07-12T09:58:04Z</time></trkpt>
      <trkpt lat="46.501864" lon="11.784921"><ele>2219.1</ele><time>2026-07-12T09:58:26Z</time></trkpt>
      <trkpt lat="46.502495" lon="11.785500"><ele>2219.6</ele><time>2026-07-12T09:58:48Z</time></trkpt>
      <trkpt lat="46.503083" lon="11.786061"><ele>2220.2</ele><time>2026-07-12T09:59:10Z</time></trkpt>
      <trkpt lat="46.503613" lon="11.786595"><ele>2220.8</ele><time>2026-07-12T09:59:32Z</time></trkpt>
      <trkpt lat="46.504069" lon="11.787095"><ele>2221.5</ele><time>2026-07-12T09:59:54Z</time></trkpt>
      <trkpt lat="46.504437" lon="11.787556"><ele>2222.2</ele><time>2026-07-12T10:00:16Z</time></trkpt>
      <trkpt lat="46.504705" lon="11.787971"><ele>2223.0</ele><time>2026-07-12T10:00:38Z</time></trkpt>
      <trkpt lat="46.504864" lon="11.788337"><ele>2223.9</ele><time>2026-07-12T10:01:00Z</time></trkpt>
      <trkpt lat="46.504908" lon="11.788650"><ele>2224.7</ele><time>2026-07-12T10:01:22Z</time></trkpt>
      <trkpt lat="46.504833" lon="11.788909"><ele>2225.7</ele><time>2026-07-12T10:01:44Z</time></trkpt>
      <trkpt lat="46.504638" lon="11.789114"><ele>2226.6</ele><time>2026-07-12T10:02:06Z</time></trkpt>
      <trkpt lat="46.504325" lon="11.789265"><ele>2227.6</ele><time>2026-07-12T10:02:28Z</time></trkpt>
      <trkpt lat="46.503899" lon="11.789365"><ele>2228.6</ele><time>2026-07-12T10:02:50Z</time></trkpt>
      <trkpt lat="46.503368" lon="11.789417"><ele>2229.7</ele><time>2026-07-12T10:03:12Z</time></trkpt>
      <trkpt lat="46.502743" lon="11.789426"><ele>2230.8</ele><time>2026-07-12T10:03:34Z</time></trkpt>
      <trkpt lat="46.502035" lon="11.789398"><ele>2231.9</ele><time>2026-07-12T10:03:56Z</time></trkpt>
      <trkpt lat="46.501260" lon="11.789340"><ele>2233.0</ele><time>2026-07-12T10:04:18Z</time></trkpt>
      <trkpt lat="46.500434" lon="11.789258"><ele>2234.2</ele><time>2026-07-12T10:04:40Z</time></trkpt>
      <trkpt lat="46.499575" lon="11.789161"><ele>2235.3</ele><time>2026-07-12T10:05:02Z</time></trkpt>
      <trkpt lat="46.498700" lon="11.789057"><ele>2236.5</ele><time>2026-07-12T10:05:24Z</time></trkpt>
      <trkpt lat="46.497828" lon="11.788954"><ele>2237.7</ele><time>2026-07-12T10:05:46Z</time></trkpt>
      <trkpt lat="46.496978" lon="11.788862"><ele>2238.9</ele><time>2026-07-12T10:06:08Z</time></trkpt>
      <trkpt lat="46.496168" lon="11.788787"><ele>2240.2</ele><time>2026-07-12T10:06:30Z</time></trkpt>
      <trkpt lat="46.495414" lon="11.788738"><ele>2241.4</ele><time>2026-07-12T10:06:52Z</time></trkpt>
      <trkpt lat="46.494731" lon="11.788721"><ele>2242.6</ele><time>2026-07-12T10:07:14Z</time></trkpt>
      <trkpt lat="46.494134" lon="11.788743"><ele>2243.8</ele><time>2026-07-12T10:07:36Z</time></trkpt>
      <trkpt lat="46.493633" lon="11.788809"><ele>2245.0</ele><time>2026-07-12T10:07:58Z</time></trkpt>
      <trkpt lat="46.493238" lon="11.788923"><ele>2246.2</ele><time>2026-07-12T10:08:20Z</time></trkpt>
      <trkpt lat="46.492954" lon="11.789087"><ele>2247.4</ele><time>2026-07-12T10:08:42Z</time></trkpt>
      <trkpt lat="46.492786" lon="11.789304"><ele>2248.5</ele><time>2026-07-12T10:09:04Z</time></trkpt>
      <trkpt lat="46.492734" lon="11.789574"><ele>2249.7</ele><time>2026-07-12T10:09:26Z</time></trkpt>
      <trkpt lat="46.492796" lon="11.789896"><ele>2250.8</ele><time>2026-07-12T10:09:48Z</time></trkpt>
      <trkpt lat="46.492967" lon="11.790266"><ele>2251.9</ele><time>2026-07-12T10:10:10Z</time></trkpt>
      <trkpt lat="46.493239" lon="11.790683"><ele>2253.0</ele><time>2026-07-12T10:10:32Z</time></trkpt>
      <trkpt lat="46.493602" lon="11.791142"><ele>2254.0</ele><time>2026-07-12T10:10:54Z</time></trkpt>
      <trkpt lat="46.494044" lon="11.791636"><ele>2255.0</ele><time>2026-07-12T10:11:16Z</time></trkpt>
      <trkpt lat="46.494551" lon="11.792160"><ele>2256.0</ele><time>2026-07-12T10:11:38Z</time></trkpt>
      <trkpt lat="46.495108" lon="11.792706"><ele>2256.9</ele><time>2026-07-12T10:12:00Z</time></trkpt>
      <trkpt lat="46.495698" lon="11.793267"><ele>2257.8</ele><time>2026-07-12T10:12:22Z</time></trkpt>
      <trkpt lat="46.496303" lon="11.793836"><ele>2258.7</ele><time>2026-07-12T10:12:44Z</time></trkpt>
      <trkpt lat="46.496907" lon="11.794403"><ele>2259.5</ele><time>2026-07-12T10:13:06Z</time></trkpt>
      <trkpt lat="46.497491" lon="11.794962"><ele>2260.2</ele><time>2026-07-12T10:13:28Z</time></trkpt>
      <trkpt lat="46.498039" lon="11.795504"><ele>2260.9</ele><time>2026-07-12T10:13:50Z</time></trkpt>
      <trkpt lat="46.498536" lon="11.796023"><ele>2261.6</ele><time>2026-07-12T10:14:12Z</time></trkpt>
      <trkpt lat="46.498967" lon="11.796512"><ele>2262.2</ele><time>2026-07-12T10:14:34Z</time></trkpt>
      <trkpt lat="46.499320" lon="11.796966"><ele>2262.7</ele><time>2026-07-12T10:14:56Z</time></trkpt>
      <trkpt lat="46.499584" lon="11.797379"><ele>2263.2</ele><time>2026-07-12T10:15:18Z</time></trkpt>
      <trkpt lat="46.499752" lon="11.797749"><ele>2263.6</ele><time>2026-07-12T10:15:40Z</time></trkpt>
      <trkpt lat="46.499818" lon="11.798072"><ele>2264.0</ele><time>2026-07-12T10:16:02Z</time></trkpt>
      <trkpt lat="46.499778" lon="11.798347"><ele>2264.3</ele><time>2026-07-12T10:16:24Z</time></trkpt>
      <trkpt lat="46.499634" lon="11.798575"><ele>2264.6</ele><time>2026-07-12T10:16:46Z</time></trkpt>
      <trkpt lat="46.499385" lon="11.798756"><ele>2264.8</ele><time>2026-07-12T10:17:08Z</time></trkpt>
      <trkpt lat="46.499039" lon="11.798892"><ele>2264.9</ele><time>2026-07-12T10:17:30Z</time></trkpt>
      <trkpt lat="46.498601" lon="11.798986"><ele>2265.0</ele><time>2026-07-12T10:17:52Z</time></trkpt>
      <trkpt lat="46.498082" lon="11.799043"><ele>2265.0</ele><time>2026-07-12T10:18:14Z</time></trkpt>
      <trkpt lat="46.497491" lon="11.799069"><ele>2264.9</ele><time>2026-07-12T10:18:36Z</time></trkpt>
      <trkpt lat="46.496843" lon="11.799068"><ele>2264.8</ele><time>2026-07-12T10:18:58Z</time></trkpt>
      <trkpt lat="46.496151" lon="11.799047"><ele>2264.6</ele><time>2026-07-12T10:19:20Z</time></trkpt>
      <trkpt lat="46.495430" lon="11.799012"><ele>2264.4</ele><time>2026-07-12T10:19:42Z</time></trkpt>
      <trkpt lat="46.494695" lon="11.798972"><ele>2264.1</ele><time>2026-07-12T10:20:04Z</time></trkpt>
      <trkpt lat="46.493963" lon="11.798933"><ele>2263.7</ele><time>2026-07-12T10:20:26Z</time></trkpt>
      <trkpt lat="46.493248" lon="11.798901"><ele>2263.3</ele><time>2026-07-12T10:20:48Z</time></trkpt>
      <trkpt lat="46.492564" lon="11.798884"><ele>2262.8</ele><time>2026-07-12T10:21:10Z</time></trkpt>
      <trkpt lat="46.491926" lon="11.798888"><ele>2262.3</ele><time>2026-07-12T10:21:32Z</time></trkpt>
      <trkpt lat="46.491345" lon="11.798917"><ele>2261.7</ele><time>2026-07-12T10:21:54Z</time></trkpt>
      <trkpt lat="46.490831" lon="11.798977"><ele>2261.1</ele><time>2026-07-12T10:22:16Z</time></trkpt>
      <trkpt lat="46.490394" lon="11.799072"><ele>2260.4</ele><time>2026-07-12T10:22:38Z</time></trkpt>
      <trkpt lat="46.490040" lon="11.799204"><ele>2259.6</ele><time>2026-07-12T10:23:00Z</time></trkpt>
      <trkpt lat="46.489772" lon="11.799376"><ele>2258.8</ele><time>2026-07-12T10:23:22Z</time></trkpt>
      <trkpt lat="46.489593" lon="11.799588"><ele>2258.0</ele><time>2026-07-12T10:23:44Z</time></trkpt>
      <trkpt lat="46.489502" lon="11.799840"><ele>2257.1</ele><time>2026-07-12T10:24:06Z</time></trkpt>
      <trkpt lat="46.489497" lon="11.800131"><ele>2256.1</ele><time>2026-07-12T10:24:28Z</time></trkpt>
      <trkpt lat="46.489574" lon="11.800459"><ele>2255.2</ele><time>2026-07-12T10:24:50Z</time></trkpt>
      <trkpt lat="46.489725" lon="11.800821"><ele>2254.1</ele><time>2026-07-12T10:25:12Z</time></trkpt>
      <trkpt lat="46.489942" lon="11.801213"><ele>2253.1</ele><time>2026-07-12T10:25:34Z</time></trkpt>
      <trkpt lat="46.490215" lon="11.801631"><ele>2252.0</ele><time>2026-07-12T10:25:56Z</time></trkpt>
      <trkpt lat="46.490533" lon="11.802068"><ele>2250.9</ele><time>2026-07-12T10:26:18Z</time></trkpt>
      <trkpt lat="46.490884" lon="11.802521"><ele>2249.7</ele><time>2026-07-12T10:26:40Z</time></trkpt>
      <trkpt lat="46.491256" lon="11.802983"><ele>2248.6</ele><time>2026-07-12T10:27:02Z</time></trkpt>
      <trkpt lat="46.491635" lon="11.803449"><ele>2247.4</ele><time>2026-07-12T10:27:24Z</time></trkpt>
      <trkpt lat="46.492010" lon="11.803913"><ele>2246.2</ele><time>2026-07-12T10:27:46Z</time></trkpt>
      <trkpt lat="46.492368" lon="11.804369"><ele>2244.9</ele><time>2026-07-12T10:28:08Z</time></trkpt>
      <trkpt lat="46.492698" lon="11.804812"><ele>2243.7</ele><time>2026-07-12T10:28:30Z</time></trkpt>
      <trkpt lat="46.492989" lon="11.805237"><ele>2242.4</ele><time>2026-07-12T10:28:52Z</time></trkpt>
      <trkpt lat="46.493232" lon="11.805641"><ele>2241.2</ele><time>2026-07-12T10:29:14Z</time></trkpt>
      <trkpt lat="46.493421" lon="11.806021"><ele>2239.9</ele><time>2026-07-12T10:29:36Z</time></trkpt>
      <trkpt lat="46.493549" lon="11.806372"><ele>2238.6</ele><time>2026-07-12T10:29:58Z</time></trkpt>
      <trkpt lat="46.493613" lon="11.806694"><ele>2237.4</ele><time>2026-07-12T10:30:20Z</time></trkpt>
      <trkpt lat="46.493611" lon="11.806987"><ele>2236.1</ele><time>2026-07-12T10:30:42Z</time></trkpt>
      <trkpt lat="46.493541" lon="11.807249"><ele>2234.9</ele><time>2026-07-12T10:31:04Z</time></trkpt>
      <trkpt lat="46.493407" lon="11.807481"><ele>2233.6</ele><time>2026-07-12T10:31:26Z</time></trkpt>
      <trkpt lat="46.493212" lon="11.807685"><ele>2232.4</ele><time>2026-07-12T10:31:48Z</time></trkpt>
      <trkpt lat="46.492959" lon="11.807864"><ele>2231.2</ele><time>2026-07-12T10:32:10Z</time></trkpt>
      <trkpt lat="46.492657" lon="11.808020"><ele>2230.0</ele><time>2026-07-12T10:32:32Z</time></trkpt>
      <trkpt lat="46.492312" lon="11.808157"><ele>2228.8</ele><time>2026-07-12T10:32:54Z</time></trkpt>
      <trkpt lat="46.491933" lon="11.808278"><ele>2227.7</ele><time>2026-07-12T10:33:16Z</time></trkpt>
      <trkpt lat="46.491529" lon="11.808388"><ele>2226.6</ele><time>2026-07-12T10:33:38Z</time></trkpt>
      <trkpt lat="46.491111" lon="11.808491"><ele>2225.5</ele><time>2026-07-12T10:34:00Z</time></trkpt>
      <trkpt lat="46.490686" lon="11.808592"><ele>2224.5</ele><time>2026-07-12T10:34:22Z</time></trkpt>
      <trkpt lat="46.490265" lon="11.808694"><ele>2223.5</ele><time>2026-07-12T10:34:44Z</time></trkpt>
      <trkpt lat="46.489857" lon="11.808802"><ele>2222.5</ele><time>2026-07-12T10:35:06Z</time></trkpt>
      <trkpt lat="46.489471" lon="11.808920"><ele>2221.6</ele><time>2026-07-12T10:35:28Z</time></trkpt>
      <trkpt lat="46.489112" lon="11.809050"><ele>2220.7</ele><time>2026-07-12T10:35:50Z</time></trkpt>
      <trkpt lat="46.488787" lon="11.809196"><ele>2219.9</ele><time>2026-07-12T10:36:12Z</time></trkpt>
      <trkpt lat="46.488501" lon="11.809360"><ele>2219.1</ele><time>2026-07-12T10:36:34Z</time></trkpt>
      <trkpt lat="46.488258" lon="11.809542"><ele>2218.3</ele><time>2026-07-12T10:36:56Z</time></trkpt>
      <trkpt lat="46.488058" lon="11.809745"><ele>2217.7</ele><time>2026-07-12T10:37:18Z</time></trkpt>
      <trkpt lat="46.487902" lon="11.809968"><ele>2217.0</ele><time>2026-07-12T10:37:40Z</time></trkpt>
      <trkpt lat="46.487789" lon="11.810209"><ele>2216.5</ele><time>2026-07-12T10:38:02Z</time></trkpt>
      <trkpt lat="46.487716" lon="11.810469"><ele>2215.9</ele><time>2026-07-12T10:38:24Z</time></trkpt>
      <trkpt lat="46.487678" lon="11.810746"><ele>2215.5</ele><time>2026-07-12T10:38:46Z</time></trkpt>
      <trkpt lat="46.487670" lon="11.811035"><ele>2215.1</ele><time>2026-07-12T10:39:08Z</time></trkpt>
      <trkpt lat="46.487686" lon="11.811336"><ele>2214.8</ele><time>2026-07-12T10:39:30Z</time></trkpt>
      <trkpt lat="46.487719" lon="11.811644"><ele>2214.5</ele><time>2026-07-12T10:39:52Z</time></trkpt>
      <trkpt lat="46.487761" lon="11.811957"><ele>2214.3</ele><time>2026-07-12T10:40:14Z</time></trkpt>
      <trkpt lat="46.487804" lon="11.812270"><ele>2214.1</ele><time>2026-07-12T10:40:36Z</time></trkpt>
      <trkpt lat="46.487843" lon="11.812581"><ele>2214.0</ele><time>2026-07-12T10:40:58Z</time></trkpt>
      <trkpt lat="46.487900" lon="11.812900"><ele>2239.0</ele><time>2026-07-12T10:41:20Z</time></trkpt>
      <trkpt lat="46.488000" lon="11.813800"><ele>2240.2</ele><time>2026-07-12T10:41:42Z</time></trkpt>
      <trkpt lat="46.488047" lon="11.814707"><ele>2241.5</ele><time>2026-07-12T10:42:04Z</time></trkpt>
      <trkpt lat="46.488059" lon="11.815621"><ele>2242.7</ele><time>2026-07-12T10:42:26Z</time></trkpt>
      <trkpt lat="46.488045" lon="11.816539"><ele>2243.8</ele><time>2026-07-12T10:42:48Z</time></trkpt>
      <trkpt lat="46.488014" lon="11.817459"><ele>2245.0</ele><time>2026-07-12T10:43:10Z</time></trkpt>
      <trkpt lat="46.487976" lon="11.818380"><ele>2246.1</ele><time>2026-07-12T10:43:32Z</time></trkpt>
      <trkpt lat="46.487941" lon="11.819301"><ele>2247.2</ele><time>2026-07-12T10:43:54Z</time></trkpt>
      <trkpt lat="46.487916" lon="11.820221"><ele>2248.2</ele><time>2026-07-12T10:44:16Z</time></trkpt>
      <trkpt lat="46.487912" lon="11.821137"><ele>2249.2</ele><time>2026-07-12T10:44:38Z</time></trkpt>
      <trkpt lat="46.487936" lon="11.822048"><ele>2250.2</ele><time>2026-07-12T10:45:00Z</time></trkpt>
      <trkpt lat="46.487995" lon="11.822954"><ele>2251.1</ele><time>2026-07-12T10:45:22Z</time></trkpt>
      <trkpt lat="46.488096" lon="11.823854"><ele>2252.0</ele><time>2026-07-12T10:45:44Z</time></trkpt>
      <trkpt lat="46.488243" lon="11.824746"><ele>2252.8</ele><time>2026-07-12T10:46:06Z</time></trkpt>
      <trkpt lat="46.488439" lon="11.825630"><ele>2253.5</ele><time>2026-07-12T10:46:28Z</time></trkpt>
      <trkpt lat="46.488687" lon="11.826506"><ele>2254.3</ele><time>2026-07-12T10:46:50Z</time></trkpt>
      <trkpt lat="46.488985" lon="11.827373"><ele>2254.9</ele><time>2026-07-12T10:47:12Z</time></trkpt>
      <trkpt lat="46.489334" lon="11.828233"><ele>2255.5</ele><time>2026-07-12T10:47:34Z</time></trkpt>
      <trkpt lat="46.489728" lon="11.829086"><ele>2256.0</ele><time>2026-07-12T10:47:56Z</time></trkpt>
      <trkpt lat="46.490163" lon="11.829932"><ele>2256.5</ele><time>2026-07-12T10:48:18Z</time></trkpt>
      <trkpt lat="46.490632" lon="11.830773"><ele>2256.9</ele><time>2026-07-12T10:48:40Z</time></trkpt>
      <trkpt lat="46.491128" lon="11.831609"><ele>2257.3</ele><time>2026-07-12T10:49:02Z</time></trkpt>
      <trkpt lat="46.491640" lon="11.832443"><ele>2257.5</ele><time>2026-07-12T10:49:24Z</time></trkpt>
      <trkpt lat="46.492160" lon="11.833275"><ele>2257.7</ele><time>2026-07-12T10:49:46Z</time></trkpt>
      <trkpt lat="46.492675" lon="11.834109"><ele>2257.9</ele><time>2026-07-12T10:50:08Z</time></trkpt>
      <trkpt lat="46.493176" lon="11.834944"><ele>2257.9</ele><time>2026-07-12T10:50:30Z</time></trkpt>
      <trkpt lat="46.493652" lon="11.835784"><ele>2257.9</ele><time>2026-07-12T10:50:52Z</time></trkpt>
      <trkpt lat="46.494091" lon="11.836629"><ele>2257.8</ele><time>2026-07-12T10:51:14Z</time></trkpt>
      <trkpt lat="46.494484" lon="11.837482"><ele>2257.7</ele><time>2026-07-12T10:51:36Z</time></trkpt>
      <trkpt lat="46.494822" lon="11.838344"><ele>2257.4</ele><time>2026-07-12T10:51:58Z</time></trkpt>
      <trkpt lat="46.495096" lon="11.839215"><ele>2257.1</ele><time>2026-07-12T10:52:20Z</time></trkpt>
      <trkpt lat="46.495302" lon="11.840098"><ele>2256.8</ele><time>2026-07-12T10:52:42Z</time></trkpt>
      <trkpt lat="46.495433" lon="11.840992"><ele>2256.3</ele><time>2026-07-12T10:53:04Z</time></trkpt>
      <trkpt lat="46.495488" lon="11.841899"><ele>2255.8</ele><time>2026-07-12T10:53:26Z</time></trkpt>
      <trkpt lat="46.495466" lon="11.842818"><ele>2255.2</ele><time>2026-07-12T10:53:48Z</time></trkpt>
      <trkpt lat="46.495369" lon="11.843749"><ele>2254.5</ele><time>2026-07-12T10:54:10Z</time></trkpt>
      <trkpt lat="46.495200" lon="11.844691"><ele>2253.8</ele><time>2026-07-12T10:54:32Z</time></trkpt>
      <trkpt lat="46.494965" lon="11.845644"><ele>2252.9</ele><time>2026-07-12T10:54:54Z</time></trkpt>
      <trkpt lat="46.494671" lon="11.846606"><ele>2252.0</ele><time>2026-07-12T10:55:16Z</time></trkpt>
      <trkpt lat="46.494329" lon="11.847576"><ele>2251.1</ele><time>2026-07-12T10:55:38Z</time></trkpt>
      <trkpt lat="46.493948" lon="11.848552"><ele>2250.1</ele><time>2026-07-12T10:56:00Z</time></trkpt>
      <trkpt lat="46.493543" lon="11.849532"><ele>2249.0</ele><time>2026-07-12T10:56:22Z</time></trkpt>
      <trkpt lat="46.493125" lon="11.850514"><ele>2247.8</ele><time>2026-07-12T10:56:44Z</time></trkpt>
      <trkpt lat="46.492709" lon="11.851496"><ele>2246.6</ele><time>2026-07-12T10:57:06Z</time></trkpt>
      <trkpt lat="46.492310" lon="11.852475"><ele>2245.3</ele><time>2026-07-12T10:57:28Z</time></trkpt>
      <trkpt lat="46.491941" lon="11.853449"><ele>2243.9</ele><time>2026-07-12T10:57:50Z</time></trkpt>
      <trkpt lat="46.491617" lon="11.854416"><ele>2242.5</ele><time>2026-07-12T10:58:12Z</time></trkpt>
      <trkpt lat="46.491351" lon="11.855374"><ele>2241.1</ele><time>2026-07-12T10:58:34Z</time></trkpt>
      <trkpt lat="46.491154" lon="11.856321"><ele>2239.5</ele><time>2026-07-12T10:58:56Z</time></trkpt>
      <trkpt lat="46.491037" lon="11.857255"><ele>2238.0</ele><time>2026-07-12T10:59:18Z</time></trkpt>
      <trkpt lat="46.491008" lon="11.858175"><ele>2236.3</ele><time>2026-07-12T10:59:40Z</time></trkpt>
      <trkpt lat="46.491073" lon="11.859080"><ele>2234.7</ele><time>2026-07-12T11:00:02Z</time></trkpt>
      <trkpt lat="46.491237" lon="11.859969"><ele>2233.0</ele><time>2026-07-12T11:00:24Z</time></trkpt>
      <trkpt lat="46.491501" lon="11.860842"><ele>2231.2</ele><time>2026-07-12T11:00:46Z</time></trkpt>
      <trkpt lat="46.491864" lon="11.861700"><ele>2229.4</ele><time>2026-07-12T11:01:08Z</time></trkpt>
      <trkpt lat="46.492322" lon="11.862542"><ele>2227.6</ele><time>2026-07-12T11:01:30Z</time></trkpt>
      <trkpt lat="46.492871" lon="11.863370"><ele>2225.7</ele><time>2026-07-12T11:01:52Z</time></trkpt>
      <trkpt lat="46.493500" lon="11.864185"><ele>2223.9</ele><time>2026-07-12T11:02:14Z</time></trkpt>
      <trkpt lat="46.494200" lon="11.864989"><ele>2222.0</ele><time>2026-07-12T11:02:36Z</time></trkpt>
      <trkpt lat="46.494958" lon="11.865784"><ele>2220.0</ele><time>2026-07-12T11:02:58Z</time></trkpt>
      <trkpt lat="46.495760" lon="11.866571"><ele>2218.1</ele><time>2026-07-12T11:03:20Z</time></trkpt>
      <trkpt lat="46.496590" lon="11.867355"><ele>2216.1</ele><time>2026-07-12T11:03:42Z</time></trkpt>
      <trkpt lat="46.497431" lon="11.868136"><ele>2214.1</ele><time>2026-07-12T11:04:04Z</time></trkpt>
      <trkpt lat="46.498266" lon="11.868918"><ele>2212.1</ele><time>2026-07-12T11:04:26Z</time></trkpt>
      <trkpt lat="46.499079" lon="11.869704"><ele>2210.1</ele><time>2026-07-12T11:04:48Z</time></trkpt>
      <trkpt lat="46.499851" lon="11.870496"><ele>2208.1</ele><time>2026-07-12T11:05:10Z</time></trkpt>
      <trkpt lat="46.500567" lon="11.871298"><ele>2206.1</ele><time>2026-07-12T11:05:32Z</time></trkpt>
      <trkpt lat="46.501212" lon="11.872110"><ele>2204.1</ele><time>2026-07-12T11:05:54Z</time></trkpt>
      <trkpt lat="46.501773" lon="11.872936"><ele>2202.1</ele><time>2026-07-12T11:06:16Z</time></trkpt>
      <trkpt lat="46.502237" lon="11.873778"><ele>2200.1</ele><time>2026-07-12T11:06:38Z</time></trkpt>
      <trkpt lat="46.502596" lon="11.874636"><ele>2198.2</ele><time>2026-07-12T11:07:00Z</time></trkpt>
      <trkpt lat="46.502843" lon="11.875512"><ele>2196.2</ele><time>2026-07-12T11:07:22Z</time></trkpt>
      <trkpt lat="46.502974" lon="11.876407"><ele>2194.3</ele><time>2026-07-12T11:07:44Z</time></trkpt>
      <trkpt lat="46.502988" lon="11.877320"><ele>2192.4</ele><time>2026-07-12T11:08:06Z</time></trkpt>
      <trkpt lat="46.502887" lon="11.878251"><ele>2190.5</ele><time>2026-07-12T11:08:28Z</time></trkpt>
      <trkpt lat="46.502675" lon="11.879200"><ele>2188.6</ele><time>2026-07-12T11:08:50Z</time></trkpt>
      <trkpt lat="46.502360" lon="11.880166"><ele>2186.8</ele><time>2026-07-12T11:09:12Z</time></trkpt>
      <trkpt lat="46.501952" lon="11.881146"><ele>2185.0</ele><time>2026-07-12T11:09:34Z</time></trkpt>
      <trkpt lat="46.501463" lon="11.882140"><ele>2183.2</ele><time>2026-07-12T11:09:56Z</time></trkpt>
      <trkpt lat="46.500909" lon="11.883143"><ele>2181.5</ele><time>2026-07-12T11:10:18Z</time></trkpt>
      <trkpt lat="46.500305" lon="11.884155"><ele>2179.8</ele><time>2026-07-12T11:10:40Z</time></trkpt>
      <trkpt lat="46.499670" lon="11.885172"><ele>2178.2</ele><time>2026-07-12T11:11:02Z</time></trkpt>
      <trkpt lat="46.499022" lon="11.886190"><ele>2176.6</ele><time>2026-07-12T11:11:24Z</time></trkpt>
      <trkpt lat="46.498380" lon="11.887208"><ele>2175.0</ele><time>2026-07-12T11:11:46Z</time></trkpt>
      <trkpt lat="46.497764" lon="11.888222"><ele>2173.5</ele><time>2026-07-12T11:12:08Z</time></trkpt>
      <trkpt lat="46.497193" lon="11.889228"><ele>2172.1</ele><time>2026-07-12T11:12:30Z</time></trkpt>
      <trkpt lat="46.496683" lon="11.890225"><ele>2170.7</ele><time>2026-07-12T11:12:52Z</time></trkpt>
      <trkpt lat="46.496252" lon="11.891209"><ele>2169.3</ele><time>2026-07-12T11:13:14Z</time></trkpt>
      <trkpt lat="46.495915" lon="11.892178"><ele>2168.0</ele><time>2026-07-12T11:13:36Z</time></trkpt>
      <trkpt lat="46.495682" lon="11.893130"><ele>2166.8</ele><time>2026-07-12T11:13:58Z</time></trkpt>
      <trkpt lat="46.495565" lon="11.894065"><ele>2165.6</ele><time>2026-07-12T11:14:20Z</time></trkpt>
      <trkpt lat="46.495570" lon="11.894979"><ele>2164.5</ele><time>2026-07-12T11:14:42Z</time></trkpt>
      <trkpt lat="46.495701" lon="11.895874"><ele>2163.5</ele><time>2026-07-12T11:15:04Z</time></trkpt>
      <trkpt lat="46.495959" lon="11.896748"><ele>2162.5</ele><time>2026-07-12T11:15:26Z</time></trkpt>
      <trkpt lat="46.496342" lon="11.897602"><ele>2161.5</ele><time>2026-07-12T11:15:48Z</time></trkpt>
      <trkpt lat="46.496845" lon="11.898438"><ele>2160.6</ele><time>2026-07-12T11:16:10Z</time></trkpt>
      <trkpt lat="46.497459" lon="11.899255"><ele>2159.8</ele><time>2026-07-12T11:16:32Z</time></trkpt>
      <trkpt lat="46.498174" lon="11.900057"><ele>2159.1</ele><time>2026-07-12T11:16:54Z</time></trkpt>
      <trkpt lat="46.498976" lon="11.900844"><ele>2158.4</ele><time>2026-07-12T11:17:16Z</time></trkpt>
      <trkpt lat="46.499849" lon="11.901620"><ele>2157.7</ele><time>2026-07-12T11:17:38Z</time></trkpt>
      <trkpt lat="46.500775" lon="11.902388"><ele>2157.1</ele><time>2026-07-12T11:18:00Z</time></trkpt>
      <trkpt lat="46.501736" lon="11.903150"><ele>2156.6</ele><time>2026-07-12T11:18:22Z</time></trkpt>
      <trkpt lat="46.502713" lon="11.903910"><ele>2156.2</ele><time>2026-07-12T11:18:44Z</time></trkpt>
      <trkpt lat="46.503684" lon="11.904671"><ele>2155.7</ele><time>2026-07-12T11:19:06Z</time></trkpt>
      <trkpt lat="46.504629" lon="11.905436"><ele>2155.4</ele><time>2026-07-12T11:19:28Z</time></trkpt>
      <trkpt lat="46.505529" lon="11.906208"><ele>2155.1</ele><time>2026-07-12T11:19:50Z</time></trkpt>
      <trkpt lat="46.506366" lon="11.906990"><ele>2154.8</ele><time>2026-07-12T11:20:12Z</time></trkpt>
      <trkpt lat="46.507123" lon="11.907784"><ele>2154.7</ele><time>2026-07-12T11:20:34Z</time></trkpt>
      <trkpt lat="46.507784" lon="11.908594"><ele>2154.5</ele><time>2026-07-12T11:20:56Z</time></trkpt>
      <trkpt lat="46.508337" lon="11.909422"><ele>2154.4</ele><time>2026-07-12T11:21:18Z</time></trkpt>
      <trkpt lat="46.508772" lon="11.910268"><ele>2154.4</ele><time>2026-07-12T11:21:40Z</time></trkpt>
      <trkpt lat="46.509081" lon="11.911134"><ele>2154.4</ele><time>2026-07-12T11:22:02Z</time></trkpt>
      <trkpt lat="46.509262" lon="11.912020"><ele>2154.4</ele><time>2026-07-12T11:22:24Z</time></trkpt>
      <trkpt lat="46.509312" lon="11.912928"><ele>2154.5</ele><time>2026-07-12T11:22:46Z</time></trkpt>
      <trkpt lat="46.509235" lon="11.913856"><ele>2154.6</ele><time>2026-07-12T11:23:08Z</time></trkpt>
      <trkpt lat="46.509035" lon="11.914803"><ele>2154.7</ele><time>2026-07-12T11:23:30Z</time></trkpt>
      <trkpt lat="46.508721" lon="11.915768"><ele>2154.9</ele><time>2026-07-12T11:23:52Z</time></trkpt>
      <trkpt lat="46.508305" lon="11.916750"><ele>2155.1</ele><time>2026-07-12T11:24:14Z</time></trkpt>
      <trkpt lat="46.507800" lon="11.917746"><ele>2155.4</ele><time>2026-07-12T11:24:36Z</time></trkpt>
      <trkpt lat="46.507221" lon="11.918754"><ele>2155.6</ele><time>2026-07-12T11:24:58Z</time></trkpt>
      <trkpt lat="46.506587" lon="11.919770"><ele>2155.9</ele><time>2026-07-12T11:25:20Z</time></trkpt>
      <trkpt lat="46.505917" lon="11.920792"><ele>2156.2</ele><time>2026-07-12T11:25:42Z</time></trkpt>
      <trkpt lat="46.505230" lon="11.921817"><ele>2156.5</ele><time>2026-07-12T11:26:04Z</time></trkpt>
      <trkpt lat="46.504547" lon="11.922841"><ele>2156.9</ele><time>2026-07-12T11:26:26Z</time></trkpt>
      <trkpt lat="46.503887" lon="11.923862"><ele>2157.2</ele><time>2026-07-12T11:26:48Z</time></trkpt>
      <trkpt lat="46.503270" lon="11.924876"><ele>2157.6</ele><time>2026-07-12T11:27:10Z</time></trkpt>
      <trkpt lat="46.502714" lon="11.925880"><ele>2157.9</ele><time>2026-07-12T11:27:32Z</time></trkpt>
      <trkpt lat="46.502236" lon="11.926871"><ele>2158.3</ele><time>2026-07-12T11:27:54Z</time></trkpt>
      <trkpt lat="46.501850" lon="11.927848"><ele>2158.6</ele><time>2026-07-12T11:28:16Z</time></trkpt>
      <trkpt lat="46.501569" lon="11.928808"><ele>2159.0</ele><time>2026-07-12T11:28:38Z</time></trkpt>
      <trkpt lat="46.501403" lon="11.929750"><ele>2159.3</ele><time>2026-07-12T11:29:00Z</time></trkpt>
      <trkpt lat="46.501357" lon="11.930673"><ele>2159.6</ele><time>2026-07-12T11:29:22Z</time></trkpt>
      <trkpt lat="46.501437" lon="11.931576"><ele>2160.0</ele><time>2026-07-12T11:29:44Z</time></trkpt>
      <trkpt lat="46.501643" lon="11.932458"><ele>2160.3</ele><time>2026-07-12T11:30:06Z</time></trkpt>
      <trkpt lat="46.501972" lon="11.933321"><ele>2160.5</ele><time>2026-07-12T11:30:28Z</time></trkpt>
      <trkpt lat="46.502419" lon="11.934165"><ele>2160.8</ele><time>2026-07-12T11:30:50Z</time></trkpt>
      <trkpt lat="46.502976" lon="11.934992"><ele>2161.0</ele><time>2026-07-12T11:31:12Z</time></trkpt>
      <trkpt lat="46.503632" lon="11.935803"><ele>2161.3</ele><time>2026-07-12T11:31:34Z</time></trkpt>
      <trkpt lat="46.504374" lon="11.936600"><ele>2161.4</ele><time>2026-07-12T11:31:56Z</time></trkpt>
      <trkpt lat="46.505186" lon="11.937386"><ele>2161.6</ele><time>2026-07-12T11:32:18Z</time></trkpt>
      <trkpt lat="46.506052" lon="11.938163"><ele>2161.7</ele><time>2026-07-12T11:32:40Z</time></trkpt>
      <trkpt lat="46.506954" lon="11.938935"><ele>2161.8</ele><time>2026-07-12T11:33:02Z</time></trkpt>
      <trkpt lat="46.507873" lon="11.939704"><ele>2161.8</ele><time>2026-07-12T11:33:24Z</time></trkpt>
      <trkpt lat="46.508789" lon="11.940473"><ele>2161.8</ele><time>2026-07-12T11:33:46Z</time></trkpt>
      <trkpt lat="46.509685" lon="11.941246"><ele>2161.8</ele><time>2026-07-12T11:34:08Z</time></trkpt>
      <trkpt lat="46.510542" lon="11.942025"><ele>2161.7</ele><time>2026-07-12T11:34:30Z</time></trkpt>
      <trkpt lat="46.511342" lon="11.942813"><ele>2161.5</ele><time>2026-07-12T11:34:52Z</time></trkpt>
      <trkpt lat="46.512072" lon="11.943612"><ele>2161.4</ele><time>2026-07-12T11:35:14Z</time></trkpt>
      <trkpt lat="46.512717" lon="11.944424"><ele>2161.1</ele><time>2026-07-12T11:35:36Z</time></trkpt>
      <trkpt lat="46.513266" lon="11.945252"><ele>2160.8</ele><time>2026-07-12T11:35:58Z</time></trkpt>
      <trkpt lat="46.513710" lon="11.946097"><ele>2160.5</ele><time>2026-07-12T11:36:20Z</time></trkpt>
      <trkpt lat="46.514043" lon="11.946959"><ele>2160.1</ele><time>2026-07-12T11:36:42Z</time></trkpt>
      <trkpt lat="46.514263" lon="11.947840"><ele>2159.7</ele><time>2026-07-12T11:37:04Z</time></trkpt>
      <trkpt lat="46.514368" lon="11.948738"><ele>2159.2</ele><time>2026-07-12T11:37:26Z</time></trkpt>
      <trkpt lat="46.514361" lon="11.949655"><ele>2158.6</ele><time>2026-07-12T11:37:48Z</time></trkpt>
      <trkpt lat="46.514247" lon="11.950588"><ele>2158.0</ele><time>2026-07-12T11:38:10Z</time></trkpt>
      <trkpt lat="46.514034" lon="11.951538"><ele>2157.4</ele><time>2026-07-12T11:38:32Z</time></trkpt>
      <trkpt lat="46.513733" lon="11.952501"><ele>2156.7</ele><time>2026-07-12T11:38:54Z</time></trkpt>
      <trkpt lat="46.513354" lon="11.953477"><ele>2155.9</ele><time>2026-07-12T11:39:16Z</time></trkpt>
      <trkpt lat="46.512913" lon="11.954462"><ele>2155.1</ele><time>2026-07-12T11:39:38Z</time></trkpt>
      <trkpt lat="46.512425" lon="11.955456"><ele>2154.2</ele><time>2026-07-12T11:40:00Z</time></trkpt>
      <trkpt lat="46.511905" lon="11.956454"><ele>2153.3</ele><time>2026-07-12T11:40:22Z</time></trkpt>
      <trkpt lat="46.511370" lon="11.957455"><ele>2152.3</ele><time>2026-07-12T11:40:44Z</time></trkpt>
      <trkpt lat="46.510838" lon="11.958455"><ele>2151.2</ele><time>2026-07-12T11:41:06Z</time></trkpt>
      <trkpt lat="46.510324" lon="11.959452"><ele>2150.1</ele><time>2026-07-12T11:41:28Z</time></trkpt>
      <trkpt lat="46.509845" lon="11.960444"><ele>2149.0</ele><time>2026-07-12T11:41:50Z</time></trkpt>
      <trkpt lat="46.509415" lon="11.961428"><ele>2147.8</ele><time>2026-07-12T11:42:12Z</time></trkpt>
      <trkpt lat="46.509046" lon="11.962402"><ele>2146.6</ele><time>2026-07-12T11:42:34Z</time></trkpt>
      <trkpt lat="46.508752" lon="11.963364"><ele>2145.3</ele><time>2026-07-12T11:42:56Z</time></trkpt>
      <trkpt lat="46.508539" lon="11.964314"><ele>2144.0</ele><time>2026-07-12T11:43:18Z</time></trkpt>
      <trkpt lat="46.508417" lon="11.965248"><ele>2142.6</ele><time>2026-07-12T11:43:40Z</time></trkpt>
      <trkpt lat="46.508388" lon="11.966168"><ele>2141.2</ele><time>2026-07-12T11:44:02Z</time></trkpt>
      <trkpt lat="46.508456" lon="11.967073"><ele>2139.7</ele><time>2026-07-12T11:44:24Z</time></trkpt>
      <trkpt lat="46.508620" lon="11.967962"><ele>2138.2</ele><time>2026-07-12T11:44:46Z</time></trkpt>
      <trkpt lat="46.508877" lon="11.968837"><ele>2136.7</ele><time>2026-07-12T11:45:08Z</time></trkpt>
      <trkpt lat="46.509222" lon="11.969697"><ele>2135.1</ele><time>2026-07-12T11:45:30Z</time></trkpt>
      <trkpt lat="46.509648" lon="11.970545"><ele>2133.6</ele><time>2026-07-12T11:45:52Z</time></trkpt>
      <trkpt lat="46.510145" lon="11.971381"><ele>2131.9</ele><time>2026-07-12T11:46:14Z</time></trkpt>
      <trkpt lat="46.510703" lon="11.972207"><ele>2130.3</ele><time>2026-07-12T11:46:36Z</time></trkpt>
      <trkpt lat="46.511310" lon="11.973026"><ele>2128.7</ele><time>2026-07-12T11:46:58Z</time></trkpt>
      <trkpt lat="46.511954" lon="11.973839"><ele>2127.0</ele><time>2026-07-12T11:47:20Z</time></trkpt>
      <trkpt lat="46.512619" lon="11.974648"><ele>2125.3</ele><time>2026-07-12T11:47:42Z</time></trkpt>
      <trkpt lat="46.513293" lon="11.975456"><ele>2123.6</ele><time>2026-07-12T11:48:04Z</time></trkpt>
      <trkpt lat="46.513961" lon="11.976265"><ele>2121.9</ele><time>2026-07-12T11:48:26Z</time></trkpt>
      <trkpt lat="46.514611" lon="11.977077"><ele>2120.2</ele><time>2026-07-12T11:48:48Z</time></trkpt>
      <trkpt lat="46.515231" lon="11.977894"><ele>2118.4</ele><time>2026-07-12T11:49:10Z</time></trkpt>
      <trkpt lat="46.515809" lon="11.978717"><ele>2116.7</ele><time>2026-07-12T11:49:32Z</time></trkpt>
      <trkpt lat="46.516335" lon="11.979548"><ele>2115.0</ele><time>2026-07-12T11:49:54Z</time></trkpt>
      <trkpt lat="46.516802" lon="11.980389"><ele>2113.3</ele><time>2026-07-12T11:50:16Z</time></trkpt>
      <trkpt lat="46.517203" lon="11.981241"><ele>2111.6</ele><time>2026-07-12T11:50:38Z</time></trkpt>
      <trkpt lat="46.517535" lon="11.982103"><ele>2109.9</ele><time>2026-07-12T11:51:00Z</time></trkpt>
      <trkpt lat="46.517794" lon="11.982977"><ele>2108.2</ele><time>2026-07-12T11:51:22Z</time></trkpt>
      <trkpt lat="46.517981" lon="11.983863"><ele>2106.6</ele><time>2026-07-12T11:51:44Z</time></trkpt>
      <trkpt lat="46.518097" lon="11.984760"><ele>2105.0</ele><time>2026-07-12T11:52:06Z</time></trkpt>
      <trkpt lat="46.518147" lon="11.985667"><ele>2103.4</ele><time>2026-07-12T11:52:28Z</time></trkpt>
      <trkpt lat="46.518136" lon="11.986585"><ele>2101.8</ele><time>2026-07-12T11:52:50Z</time></trkpt>
      <trkpt lat="46.518070" lon="11.987511"><ele>2100.3</ele><time>2026-07-12T11:53:12Z</time></trkpt>
      <trkpt lat="46.517958" lon="11.988444"><ele>2098.8</ele><time>2026-07-12T11:53:34Z</time></trkpt>
      <trkpt lat="46.517809" lon="11.989383"><ele>2097.3</ele><time>2026-07-12T11:53:56Z</time></trkpt>
      <trkpt lat="46.517633" lon="11.990326"><ele>2095.9</ele><time>2026-07-12T11:54:18Z</time></trkpt>
      <trkpt lat="46.517441" lon="11.991272"><ele>2094.5</ele><time>2026-07-12T11:54:40Z</time></trkpt>
      <trkpt lat="46.517242" lon="11.992219"><ele>2093.2</ele><time>2026-07-12T11:55:02Z</time></trkpt>
      <trkpt lat="46.517048" lon="11.993166"><ele>2091.9</ele><time>2026-07-12T11:55:24Z</time></trkpt>
      <trkpt lat="46.516868" lon="11.994110"><ele>2090.7</ele><time>2026-07-12T11:55:46Z</time></trkpt>
      <trkpt lat="46.516710" lon="11.995050"><ele>2089.5</ele><time>2026-07-12T11:56:08Z</time></trkpt>
      <trkpt lat="46.516583" lon="11.995986"><ele>2088.4</ele><time>2026-07-12T11:56:30Z</time></trkpt>
      <trkpt lat="46.516493" lon="11.996916"><ele>2087.4</ele><time>2026-07-12T11:56:52Z</time></trkpt>
      <trkpt lat="46.516445" lon="11.997839"><ele>2086.4</ele><time>2026-07-12T11:57:14Z</time></trkpt>
      <trkpt lat="46.516443" lon="11.998755"><ele>2085.5</ele><time>2026-07-12T11:57:36Z</time></trkpt>
      <trkpt lat="46.516489" lon="11.999663"><ele>2084.6</ele><time>2026-07-12T11:57:58Z</time></trkpt>
      <trkpt lat="46.516582" lon="12.000563"><ele>2083.8</ele><time>2026-07-12T11:58:20Z</time></trkpt>
      <trkpt lat="46.516721" lon="12.001456"><ele>2083.1</ele><time>2026-07-12T11:58:42Z</time></trkpt>
      <trkpt lat="46.516903" lon="12.002343"><ele>2082.4</ele><time>2026-07-12T11:59:04Z</time></trkpt>
      <trkpt lat="46.517124" lon="12.003223"><ele>2081.9</ele><time>2026-07-12T11:59:26Z</time></trkpt>
      <trkpt lat="46.517378" lon="12.004098"><ele>2081.4</ele><time>2026-07-12T11:59:48Z</time></trkpt>
      <trkpt lat="46.517658" lon="12.004969"><ele>2081.0</ele><time>2026-07-12T12:00:10Z</time></trkpt>
      <trkpt lat="46.517955" lon="12.005837"><ele>2080.6</ele><time>2026-07-12T12:00:32Z</time></trkpt>
      <trkpt lat="46.518263" lon="12.006703"><ele>2080.3</ele><time>2026-07-12T12:00:54Z</time></trkpt>
      <trkpt lat="46.518572" lon="12.007569"><ele>2080.1</ele><time>2026-07-12T12:01:16Z</time></trkpt>
      <trkpt lat="46.518876" lon="12.008436"><ele>2080.0</ele><time>2026-07-12T12:01:38Z</time></trkpt>
      <trkpt lat="46.519200" lon="12.009300"><ele>2105.0</ele><time>2026-07-12T12:02:00Z</time></trkpt>
      <trkpt lat="46.519254" lon="12.009882"><ele>2106.2</ele><time>2026-07-12T12:02:22Z</time></trkpt>
      <trkpt lat="46.519257" lon="12.010472"><ele>2107.3</ele><time>2026-07-12T12:02:44Z</time></trkpt>
      <trkpt lat="46.519223" lon="12.011069"><ele>2108.2</ele><time>2026-07-12T12:03:06Z</time></trkpt>
      <trkpt lat="46.519164" lon="12.011670"><ele>2109.1</ele><time>2026-07-12T12:03:28Z</time></trkpt>
      <trkpt lat="46.519088" lon="12.012273"><ele>2109.8</ele><time>2026-07-12T12:03:50Z</time></trkpt>
      <trkpt lat="46.519005" lon="12.012878"><ele>2110.5</ele><time>2026-07-12T12:04:12Z</time></trkpt>
      <trkpt lat="46.518924" lon="12.013483"><ele>2111.0</ele><time>2026-07-12T12:04:34Z</time></trkpt>
      <trkpt lat="46.518854" lon="12.014085"><ele>2111.3</ele><time>2026-07-12T12:04:56Z</time></trkpt>
      <trkpt lat="46.518805" lon="12.014684"><ele>2111.6</ele><time>2026-07-12T12:05:18Z</time></trkpt>
      <trkpt lat="46.518783" lon="12.015279"><ele>2111.7</ele><time>2026-07-12T12:05:40Z</time></trkpt>
      <trkpt lat="46.518797" lon="12.015867"><ele>2111.7</ele><time>2026-07-12T12:06:02Z</time></trkpt>
      <trkpt lat="46.518852" lon="12.016449"><ele>2111.5</ele><time>2026-07-12T12:06:24Z</time></trkpt>
      <trkpt lat="46.518954" lon="12.017023"><ele>2111.3</ele><time>2026-07-12T12:06:46Z</time></trkpt>
      <trkpt lat="46.519105" lon="12.017588"><ele>2110.9</ele><time>2026-07-12T12:07:08Z</time></trkpt>
      <trkpt lat="46.519307" lon="12.018145"><ele>2110.3</ele><time>2026-07-12T12:07:30Z</time></trkpt>
      <trkpt lat="46.519560" lon="12.018693"><ele>2109.6</ele><time>2026-07-12T12:07:52Z</time></trkpt>
      <trkpt lat="46.519862" lon="12.019233"><ele>2108.8</ele><time>2026-07-12T12:08:14Z</time></trkpt>
      <trkpt lat="46.520211" lon="12.019765"><ele>2107.9</ele><time>2026-07-12T12:08:36Z</time></trkpt>
      <trkpt lat="46.520600" lon="12.020290"><ele>2106.8</ele><time>2026-07-12T12:08:58Z</time></trkpt>
      <trkpt lat="46.521023" lon="12.020810"><ele>2105.5</ele><time>2026-07-12T12:09:20Z</time></trkpt>
      <trkpt lat="46.521473" lon="12.021325"><ele>2104.1</ele><time>2026-07-12T12:09:42Z</time></trkpt>
      <trkpt lat="46.521939" lon="12.021837"><ele>2102.6</ele><time>2026-07-12T12:10:04Z</time></trkpt>
      <trkpt lat="46.522413" lon="12.022348"><ele>2100.9</ele><time>2026-07-12T12:10:26Z</time></trkpt>
      <trkpt lat="46.522882" lon="12.022860"><ele>2099.1</ele><time>2026-07-12T12:10:48Z</time></trkpt>
      <trkpt lat="46.523338" lon="12.023374"><ele>2097.2</ele><time>2026-07-12T12:11:10Z</time></trkpt>
      <trkpt lat="46.523767" lon="12.023893"><ele>2095.1</ele><time>2026-07-12T12:11:32Z</time></trkpt>
      <trkpt lat="46.524161" lon="12.024417"><ele>2092.8</ele><time>2026-07-12T12:11:54Z</time></trkpt>
      <trkpt lat="46.524508" lon="12.024950"><ele>2090.5</ele><time>2026-07-12T12:12:16Z</time></trkpt>
      <trkpt lat="46.524800" lon="12.025491"><ele>2087.9</ele><time>2026-07-12T12:12:38Z</time></trkpt>
      <trkpt lat="46.525028" lon="12.026044"><ele>2085.3</ele><time>2026-07-12T12:13:00Z</time></trkpt>
      <trkpt lat="46.525188" lon="12.026608"><ele>2082.4</ele><time>2026-07-12T12:13:22Z</time></trkpt>
      <trkpt lat="46.525274" lon="12.027184"><ele>2079.5</ele><time>2026-07-12T12:13:44Z</time></trkpt>
      <trkpt lat="46.525284" lon="12.027773"><ele>2076.4</ele><time>2026-07-12T12:14:06Z</time></trkpt>
      <trkpt lat="46.525217" lon="12.028375"><ele>2073.2</ele><time>2026-07-12T12:14:28Z</time></trkpt>
      <trkpt lat="46.525074" lon="12.028990"><ele>2069.8</ele><time>2026-07-12T12:14:50Z</time></trkpt>
      <trkpt lat="46.524860" lon="12.029617"><ele>2066.3</ele><time>2026-07-12T12:15:12Z</time></trkpt>
      <trkpt lat="46.524580" lon="12.030255"><ele>2062.7</ele><time>2026-07-12T12:15:34Z</time></trkpt>
      <trkpt lat="46.524242" lon="12.030903"><ele>2058.9</ele><time>2026-07-12T12:15:56Z</time></trkpt>
      <trkpt lat="46.523855" lon="12.031559"><ele>2055.0</ele><time>2026-07-12T12:16:18Z</time></trkpt>
      <trkpt lat="46.523430" lon="12.032222"><ele>2051.0</ele><time>2026-07-12T12:16:40Z</time></trkpt>
      <trkpt lat="46.522979" lon="12.032888"><ele>2046.8</ele><time>2026-07-12T12:17:02Z</time></trkpt>
      <trkpt lat="46.522517" lon="12.033557"><ele>2042.5</ele><time>2026-07-12T12:17:24Z</time></trkpt>
      <trkpt lat="46.522057" lon="12.034226"><ele>2038.1</ele><time>2026-07-12T12:17:46Z</time></trkpt>
      <trkpt lat="46.521613" lon="12.034891"><ele>2033.6</ele><time>2026-07-12T12:18:08Z</time></trkpt>
      <trkpt lat="46.521199" lon="12.035552"><ele>2029.0</ele><time>2026-07-12T12:18:30Z</time></trkpt>
      <trkpt lat="46.520831" lon="12.036205"><ele>2024.2</ele><time>2026-07-12T12:18:52Z</time></trkpt>
      <trkpt lat="46.520519" lon="12.036848"><ele>2019.3</ele><time>2026-07-12T12:19:14Z</time></trkpt>
      <trkpt lat="46.520277" lon="12.037480"><ele>2014.4</ele><time>2026-07-12T12:19:36Z</time></trkpt>
      <trkpt lat="46.520115" lon="12.038098"><ele>2009.3</ele><time>2026-07-12T12:19:58Z</time></trkpt>
      <trkpt lat="46.520041" lon="12.038701"><ele>2004.1</ele><time>2026-07-12T12:20:20Z</time></trkpt>
      <trkpt lat="46.520061" lon="12.039289"><ele>1998.9</ele><time>2026-07-12T12:20:42Z</time></trkpt>
      <trkpt lat="46.520179" lon="12.039860"><ele>1993.5</ele><time>2026-07-12T12:21:04Z</time></trkpt>
      <trkpt lat="46.520397" lon="12.040414"><ele>1988.0</ele><time>2026-07-12T12:21:26Z</time></trkpt>
      <trkpt lat="46.520714" lon="12.040951"><ele>1982.5</ele><time>2026-07-12T12:21:48Z</time></trkpt>
      <trkpt lat="46.521127" lon="12.041473"><ele>1976.9</ele><time>2026-07-12T12:22:10Z</time></trkpt>
      <trkpt lat="46.521630" lon="12.041979"><ele>1971.2</ele><time>2026-07-12T12:22:32Z</time></trkpt>
      <trkpt lat="46.522213" lon="12.042471"><ele>1965.4</ele><time>2026-07-12T12:22:54Z</time></trkpt>
      <trkpt lat="46.522867" lon="12.042952"><ele>1959.6</ele><time>2026-07-12T12:23:16Z</time></trkpt>
      <trkpt lat="46.523579" lon="12.043423"><ele>1953.7</ele><time>2026-07-12T12:23:38Z</time></trkpt>
      <trkpt lat="46.524334" lon="12.043887"><ele>1947.7</ele><time>2026-07-12T12:24:00Z</time></trkpt>
      <trkpt lat="46.525117" lon="12.044345"><ele>1941.7</ele><time>2026-07-12T12:24:22Z</time></trkpt>
      <trkpt lat="46.525912" lon="12.044802"><ele>1935.6</ele><time>2026-07-12T12:24:44Z</time></trkpt>
      <trkpt lat="46.526701" lon="12.045260"><ele>1929.4</ele><time>2026-07-12T12:25:06Z</time></trkpt>
      <trkpt lat="46.527467" lon="12.045722"><ele>1923.2</ele><time>2026-07-12T12:25:28Z</time></trkpt>
      <trkpt lat="46.528193" lon="12.046191"><ele>1917.0</ele><time>2026-07-12T12:25:50Z</time></trkpt>
      <trkpt lat="46.528862" lon="12.046669"><ele>1910.8</ele><time>2026-07-12T12:26:12Z</time></trkpt>
      <trkpt lat="46.529461" lon="12.047159"><ele>1904.5</ele><time>2026-07-12T12:26:34Z</time></trkpt>
      <trkpt lat="46.529976" lon="12.047663"><ele>1898.1</ele><time>2026-07-12T12:26:56Z</time></trkpt>
      <trkpt lat="46.530394" lon="12.048183"><ele>1891.8</ele><time>2026-07-12T12:27:18Z</time></trkpt>
      <trkpt lat="46.530707" lon="12.048721"><ele>1885.4</ele><time>2026-07-12T12:27:40Z</time></trkpt>
      <trkpt lat="46.530909" lon="12.049278"><ele>1879.0</ele><time>2026-07-12T12:28:02Z</time></trkpt>
      <trkpt lat="46.530994" lon="12.049854"><ele>1872.6</ele><time>2026-07-12T12:28:24Z</time></trkpt>
      <trkpt lat="46.530963" lon="12.050451"><ele>1866.2</ele><time>2026-07-12T12:28:46Z</time></trkpt>
      <trkpt lat="46.530817" lon="12.051066"><ele>1859.8</ele><time>2026-07-12T12:29:08Z</time></trkpt>
      <trkpt lat="46.530560" lon="12.051700"><ele>1853.4</ele><time>2026-07-12T12:29:30Z</time></trkpt>
      <trkpt lat="46.530200" lon="12.052352"><ele>1846.9</ele><time>2026-07-12T12:29:52Z</time></trkpt>
      <trkpt lat="46.529747" lon="12.053019"><ele>1840.5</ele><time>2026-07-12T12:30:14Z</time></trkpt>
      <trkpt lat="46.529214" lon="12.053700"><ele>1834.1</ele><time>2026-07-12T12:30:36Z</time></trkpt>
      <trkpt lat="46.528615" lon="12.054391"><ele>1827.7</ele><time>2026-07-12T12:30:58Z</time></trkpt>
      <trkpt lat="46.527967" lon="12.055091"><ele>1821.3</ele><time>2026-07-12T12:31:20Z</time></trkpt>
      <trkpt lat="46.527288" lon="12.055797"><ele>1814.9</ele><time>2026-07-12T12:31:42Z</time></trkpt>
      <trkpt lat="46.526596" lon="12.056504"><ele>1808.6</ele><time>2026-07-12T12:32:04Z</time></trkpt>
      <trkpt lat="46.525910" lon="12.057211"><ele>1802.3</ele><time>2026-07-12T12:32:26Z</time></trkpt>
      <trkpt lat="46.525249" lon="12.057913"><ele>1796.0</ele><time>2026-07-12T12:32:48Z</time></trkpt>
      <trkpt lat="46.524633" lon="12.058608"><ele>1789.7</ele><time>2026-07-12T12:33:10Z</time></trkpt>
      <trkpt lat="46.524079" lon="12.059292"><ele>1783.5</ele><time>2026-07-12T12:33:32Z</time></trkpt>
      <trkpt lat="46.523604" lon="12.059963"><ele>1777.3</ele><time>2026-07-12T12:33:54Z</time></trkpt>
      <trkpt lat="46.523221" lon="12.060618"><ele>1771.1</ele><time>2026-07-12T12:34:16Z</time></trkpt>
      <trkpt lat="46.522944" lon="12.061256"><ele>1765.0</ele><time>2026-07-12T12:34:38Z</time></trkpt>
      <trkpt lat="46.522781" lon="12.061874"><ele>1758.9</ele><time>2026-07-12T12:35:00Z</time></trkpt>
      <trkpt lat="46.522741" lon="12.062472"><ele>1752.8</ele><time>2026-07-12T12:35:22Z</time></trkpt>
      <trkpt lat="46.522826" lon="12.063048"><ele>1746.8</ele><time>2026-07-12T12:35:44Z</time></trkpt>
      <trkpt lat="46.523039" lon="12.063603"><ele>1740.9</ele><time>2026-07-12T12:36:06Z</time></trkpt>
      <trkpt lat="46.523376" lon="12.064137"><ele>1734.9</ele><time>2026-07-12T12:36:28Z</time></trkpt>
      <trkpt lat="46.523833" lon="12.064651"><ele>1729.1</ele><time>2026-07-12T12:36:50Z</time></trkpt>
      <trkpt lat="46.524402" lon="12.065146"><ele>1723.2</ele><time>2026-07-12T12:37:12Z</time></trkpt>
      <trkpt lat="46.525070" lon="12.065624"><ele>1717.5</ele><time>2026-07-12T12:37:34Z</time></trkpt>
      <trkpt lat="46.525825" lon="12.066088"><ele>1711.7</ele><time>2026-07-12T12:37:56Z</time></trkpt>
      <trkpt lat="46.526652" lon="12.066539"><ele>1706.1</ele><time>2026-07-12T12:38:18Z</time></trkpt>
      <trkpt lat="46.527532" lon="12.066982"><ele>1700.4</ele><time>2026-07-12T12:38:40Z</time></trkpt>
      <trkpt lat="46.528446" lon="12.067419"><ele>1694.9</ele><time>2026-07-12T12:39:02Z</time></trkpt>
      <trkpt lat="46.529376" lon="12.067853"><ele>1689.3</ele><time>2026-07-12T12:39:24Z</time></trkpt>
      <trkpt lat="46.530300" lon="12.068288"><ele>1683.8</ele><time>2026-07-12T12:39:46Z</time></trkpt>
      <trkpt lat="46.531199" lon="12.068728"><ele>1678.4</ele><time>2026-07-12T12:40:08Z</time></trkpt>
      <trkpt lat="46.532053" lon="12.069175"><ele>1673.0</ele><time>2026-07-12T12:40:30Z</time></trkpt>
      <trkpt lat="46.532843" lon="12.069632"><ele>1667.7</ele><time>2026-07-12T12:40:52Z</time></trkpt>
      <trkpt lat="46.533553" lon="12.070103"><ele>1662.4</ele><time>2026-07-12T12:41:14Z</time></trkpt>
      <trkpt lat="46.534168" lon="12.070591"><ele>1657.2</ele><time>2026-07-12T12:41:36Z</time></trkpt>
      <trkpt lat="46.534675" lon="12.071096"><ele>1652.0</ele><time>2026-07-12T12:41:58Z</time></trkpt>
      <trkpt lat="46.535064" lon="12.071621"><ele>1646.9</ele><time>2026-07-12T12:42:20Z</time></trkpt>
      <trkpt lat="46.535328" lon="12.072168"><ele>1641.8</ele><time>2026-07-12T12:42:42Z</time></trkpt>
      <trkpt lat="46.535463" lon="12.072736"><ele>1636.7</ele><time>2026-07-12T12:43:04Z</time></trkpt>
      <trkpt lat="46.535468" lon="12.073326"><ele>1631.7</ele><time>2026-07-12T12:43:26Z</time></trkpt>
      <trkpt lat="46.535346" lon="12.073937"><ele>1626.7</ele><time>2026-07-12T12:43:48Z</time></trkpt>
      <trkpt lat="46.535101" lon="12.074569"><ele>1621.8</ele><time>2026-07-12T12:44:10Z</time></trkpt>
      <trkpt lat="46.534742" lon="12.075221"><ele>1616.9</ele><time>2026-07-12T12:44:32Z</time></trkpt>
      <trkpt lat="46.534281" lon="12.075889"><ele>1612.0</ele><time>2026-07-12T12:44:54Z</time></trkpt>
      <trkpt lat="46.533731" lon="12.076573"><ele>1607.2</ele><time>2026-07-12T12:45:16Z</time></trkpt>
      <trkpt lat="46.533109" lon="12.077269"><ele>1602.4</ele><time>2026-07-12T12:45:38Z</time></trkpt>
      <trkpt lat="46.532431" lon="12.077974"><ele>1597.6</ele><time>2026-07-12T12:46:00Z</time></trkpt>
      <trkpt lat="46.531716" lon="12.078685"><ele>1592.9</ele><time>2026-07-12T12:46:22Z</time></trkpt>
      <trkpt lat="46.530985" lon="12.079399"><ele>1588.2</ele><time>2026-07-12T12:46:44Z</time></trkpt>
      <trkpt lat="46.530257" lon="12.080113"><ele>1583.5</ele><time>2026-07-12T12:47:06Z</time></trkpt>
      <trkpt lat="46.529553" lon="12.080822"><ele>1578.8</ele><time>2026-07-12T12:47:28Z</time></trkpt>
      <trkpt lat="46.528892" lon="12.081524"><ele>1574.1</ele><time>2026-07-12T12:47:50Z</time></trkpt>
      <trkpt lat="46.528292" lon="12.082216"><ele>1569.5</ele><time>2026-07-12T12:48:12Z</time></trkpt>
      <trkpt lat="46.527769" lon="12.082895"><ele>1564.9</ele><time>2026-07-12T12:48:34Z</time></trkpt>
      <trkpt lat="46.527338" lon="12.083559"><ele>1560.3</ele><time>2026-07-12T12:48:56Z</time></trkpt>
      <trkpt lat="46.527013" lon="12.084204"><ele>1555.7</ele><time>2026-07-12T12:49:18Z</time></trkpt>
      <trkpt lat="46.526801" lon="12.084831"><ele>1551.1</ele><time>2026-07-12T12:49:40Z</time></trkpt>
      <trkpt lat="46.526710" lon="12.085437"><ele>1546.5</ele><time>2026-07-12T12:50:02Z</time></trkpt>
      <trkpt lat="46.526745" lon="12.086022"><ele>1541.9</ele><time>2026-07-12T12:50:24Z</time></trkpt>
      <trkpt lat="46.526905" lon="12.086586"><ele>1537.3</ele><time>2026-07-12T12:50:46Z</time></trkpt>
      <trkpt lat="46.527188" lon="12.087129"><ele>1532.7</ele><time>2026-07-12T12:51:08Z</time></trkpt>
      <trkpt lat="46.527589" lon="12.087652"><ele>1528.2</ele><time>2026-07-12T12:51:30Z</time></trkpt>
      <trkpt lat="46.528100" lon="12.088157"><ele>1523.6</ele><time>2026-07-12T12:51:52Z</time></trkpt>
      <trkpt lat="46.528710" lon="12.088645"><ele>1519.0</ele><time>2026-07-12T12:52:14Z</time></trkpt>
      <trkpt lat="46.529406" lon="12.089119"><ele>1514.4</ele><time>2026-07-12T12:52:36Z</time></trkpt>
      <trkpt lat="46.530172" lon="12.089581"><ele>1509.8</ele><time>2026-07-12T12:52:58Z</time></trkpt>
      <trkpt lat="46.530991" lon="12.090033"><ele>1505.2</ele><time>2026-07-12T12:53:20Z</time></trkpt>
      <trkpt lat="46.531846" lon="12.090480"><ele>1500.6</ele><time>2026-07-12T12:53:42Z</time></trkpt>
      <trkpt lat="46.532719" lon="12.090924"><ele>1495.9</ele><time>2026-07-12T12:54:04Z</time></trkpt>
      <trkpt lat="46.533588" lon="12.091368"><ele>1491.3</ele><time>2026-07-12T12:54:26Z</time></trkpt>
      <trkpt lat="46.534438" lon="12.091816"><ele>1486.6</ele><time>2026-07-12T12:54:48Z</time></trkpt>
      <trkpt lat="46.535248" lon="12.092271"><ele>1481.9</ele><time>2026-07-12T12:55:10Z</time></trkpt>
      <trkpt lat="46.536002" lon="12.092734"><ele>1477.2</ele><time>2026-07-12T12:55:32Z</time></trkpt>
      <trkpt lat="46.536685" lon="12.093210"><ele>1472.5</ele><time>2026-07-12T12:55:54Z</time></trkpt>
      <trkpt lat="46.537284" lon="12.093700"><ele>1467.8</ele><time>2026-07-12T12:56:16Z</time></trkpt>
      <trkpt lat="46.537787" lon="12.094206"><ele>1463.0</ele><time>2026-07-12T12:56:38Z</time></trkpt>
      <trkpt lat="46.538185" lon="12.094730"><ele>1458.3</ele><time>2026-07-12T12:57:00Z</time></trkpt>
      <trkpt lat="46.538473" lon="12.095272"><ele>1453.5</ele><time>2026-07-12T12:57:22Z</time></trkpt>
      <trkpt lat="46.538647" lon="12.095834"><ele>1448.7</ele><time>2026-07-12T12:57:44Z</time></trkpt>
      <trkpt lat="46.538706" lon="12.096415"><ele>1443.8</ele><time>2026-07-12T12:58:06Z</time></trkpt>
      <trkpt lat="46.538654" lon="12.097014"><ele>1439.0</ele><time>2026-07-12T12:58:28Z</time></trkpt>
      <trkpt lat="46.538495" lon="12.097632"><ele>1434.1</ele><time>2026-07-12T12:58:50Z</time></trkpt>
      <trkpt lat="46.538237" lon="12.098266"><ele>1429.3</ele><time>2026-07-12T12:59:12Z</time></trkpt>
      <trkpt lat="46.537891" lon="12.098915"><ele>1424.4</ele><time>2026-07-12T12:59:34Z</time></trkpt>
      <trkpt lat="46.537468" lon="12.099578"><ele>1419.4</ele><time>2026-07-12T12:59:56Z</time></trkpt>
      <trkpt lat="46.536983" lon="12.100250"><ele>1414.5</ele><time>2026-07-12T13:00:18Z</time></trkpt>
      <trkpt lat="46.536449" lon="12.100931"><ele>1409.6</ele><time>2026-07-12T13:00:40Z</time></trkpt>
      <trkpt lat="46.535885" lon="12.101617"><ele>1404.6</ele><time>2026-07-12T13:01:02Z</time></trkpt>
      <trkpt lat="46.535306" lon="12.102305"><ele>1399.7</ele><time>2026-07-12T13:01:24Z</time></trkpt>
      <trkpt lat="46.534729" lon="12.102993"><ele>1394.7</ele><time>2026-07-12T13:01:46Z</time></trkpt>
      <trkpt lat="46.534171" lon="12.103678"><ele>1389.7</ele><time>2026-07-12T13:02:08Z</time></trkpt>
      <trkpt lat="46.533647" lon="12.104357"><ele>1384.7</ele><time>2026-07-12T13:02:30Z</time></trkpt>
      <trkpt lat="46.533172" lon="12.105028"><ele>1379.7</ele><time>2026-07-12T13:02:52Z</time></trkpt>
      <trkpt lat="46.532759" lon="12.105689"><ele>1374.7</ele><time>2026-07-12T13:03:14Z</time></trkpt>
      <trkpt lat="46.532420" lon="12.106337"><ele>1369.8</ele><time>2026-07-12T13:03:36Z</time></trkpt>
      <trkpt lat="46.532163" lon="12.106971"><ele>1364.8</ele><time>2026-07-12T13:03:58Z</time></trkpt>
      <trkpt lat="46.531995" lon="12.107590"><ele>1359.8</ele><time>2026-07-12T13:04:20Z</time></trkpt>
      <trkpt lat="46.531921" lon="12.108193"><ele>1354.8</ele><time>2026-07-12T13:04:42Z</time></trkpt>
      <trkpt lat="46.531944" lon="12.108781"><ele>1349.9</ele><time>2026-07-12T13:05:04Z</time></trkpt>
      <trkpt lat="46.532062" lon="12.109351"><ele>1344.9</ele><time>2026-07-12T13:05:26Z</time></trkpt>
      <trkpt lat="46.532274" lon="12.109907"><ele>1340.0</ele><time>2026-07-12T13:05:48Z</time></trkpt>
      <trkpt lat="46.532573" lon="12.110447"><ele>1335.1</ele><time>2026-07-12T13:06:10Z</time></trkpt>
      <trkpt lat="46.532953" lon="12.110974"><ele>1330.2</ele><time>2026-07-12T13:06:32Z</time></trkpt>
      <trkpt lat="46.533404" lon="12.111489"><ele>1325.4</ele><time>2026-07-12T13:06:54Z</time></trkpt>
      <trkpt lat="46.533916" lon="12.111993"><ele>1320.6</ele><time>2026-07-12T13:07:16Z</time></trkpt>
      <trkpt lat="46.534477" lon="12.112490"><ele>1315.8</ele><time>2026-07-12T13:07:38Z</time></trkpt>
      <trkpt lat="46.535074" lon="12.112980"><ele>1311.1</ele><time>2026-07-12T13:08:00Z</time></trkpt>
      <trkpt lat="46.535693" lon="12.113466"><ele>1306.4</ele><time>2026-07-12T13:08:22Z</time></trkpt>
      <trkpt lat="46.536321" lon="12.113952"><ele>1301.8</ele><time>2026-07-12T13:08:44Z</time></trkpt>
      <trkpt lat="46.536943" lon="12.114438"><ele>1297.2</ele><time>2026-07-12T13:09:06Z</time></trkpt>
      <trkpt lat="46.537547" lon="12.114927"><ele>1292.6</ele><time>2026-07-12T13:09:28Z</time></trkpt>
      <trkpt lat="46.538120" lon="12.115421"><ele>1288.1</ele><time>2026-07-12T13:09:50Z</time></trkpt>
      <trkpt lat="46.538652" lon="12.115922"><ele>1283.7</ele><time>2026-07-12T13:10:12Z</time></trkpt>
      <trkpt lat="46.539132" lon="12.116432"><ele>1279.4</ele><time>2026-07-12T13:10:34Z</time></trkpt>
      <trkpt lat="46.539553" lon="12.116952"><ele>1275.1</ele><time>2026-07-12T13:10:56Z</time></trkpt>
      <trkpt lat="46.539909" lon="12.117483"><ele>1270.9</ele><time>2026-07-12T13:11:18Z</time></trkpt>
      <trkpt lat="46.540194" lon="12.118026"><ele>1266.8</ele><time>2026-07-12T13:11:40Z</time></trkpt>
      <trkpt lat="46.540408" lon="12.118581"><ele>1262.8</ele><time>2026-07-12T13:12:02Z</time></trkpt>
      <trkpt lat="46.540549" lon="12.119148"><ele>1258.8</ele><time>2026-07-12T13:12:24Z</time></trkpt>
      <trkpt lat="46.540621" lon="12.119726"><ele>1255.0</ele><time>2026-07-12T13:12:46Z</time></trkpt>
      <trkpt lat="46.540625" lon="12.120317"><ele>1251.2</ele><time>2026-07-12T13:13:08Z</time></trkpt>
      <trkpt lat="46.540568" lon="12.120917"><ele>1247.6</ele><time>2026-07-12T13:13:30Z</time></trkpt>
      <trkpt lat="46.540457" lon="12.121527"><ele>1244.0</ele><time>2026-07-12T13:13:52Z</time></trkpt>
      <trkpt lat="46.540300" lon="12.122144"><ele>1240.6</ele><time>2026-07-12T13:14:14Z</time></trkpt>
      <trkpt lat="46.540106" lon="12.122767"><ele>1237.2</ele><time>2026-07-12T13:14:36Z</time></trkpt>
      <trkpt lat="46.539886" lon="12.123395"><ele>1234.0</ele><time>2026-07-12T13:14:58Z</time></trkpt>
      <trkpt lat="46.539648" lon="12.124026"><ele>1230.9</ele><time>2026-07-12T13:15:20Z</time></trkpt>
      <trkpt lat="46.539405" lon="12.124658"><ele>1227.9</ele><time>2026-07-12T13:15:42Z</time></trkpt>
      <trkpt lat="46.539166" lon="12.125289"><ele>1225.1</ele><time>2026-07-12T13:16:04Z</time></trkpt>
      <trkpt lat="46.538940" lon="12.125918"><ele>1222.4</ele><time>2026-07-12T13:16:26Z</time></trkpt>
      <trkpt lat="46.538738" lon="12.126543"><ele>1219.8</ele><time>2026-07-12T13:16:48Z</time></trkpt>
      <trkpt lat="46.538566" lon="12.127163"><ele>1217.4</ele><time>2026-07-12T13:17:10Z</time></trkpt>
      <trkpt lat="46.538431" lon="12.127777"><ele>1215.1</ele><time>2026-07-12T13:17:32Z</time></trkpt>
      <trkpt lat="46.538338" lon="12.128383"><ele>1212.9</ele><time>2026-07-12T13:17:54Z</time></trkpt>
      <trkpt lat="46.538290" lon="12.128982"><ele>1210.9</ele><time>2026-07-12T13:18:16Z</time></trkpt>
      <trkpt lat="46.538290" lon="12.129573"><ele>1209.0</ele><time>2026-07-12T13:18:38Z</time></trkpt>
      <trkpt lat="46.538338" lon="12.130156"><ele>1207.3</ele><time>2026-07-12T13:19:00Z</time></trkpt>
      <trkpt lat="46.538432" lon="12.130731"><ele>1205.7</ele><time>2026-07-12T13:19:22Z</time></trkpt>
      <trkpt lat="46.538569" lon="12.131299"><ele>1204.3</ele><time>2026-07-12T13:19:44Z</time></trkpt>
      <trkpt lat="46.538744" lon="12.131860"><ele>1203.1</ele><time>2026-07-12T13:20:06Z</time></trkpt>
      <trkpt lat="46.538952" lon="12.132416"><ele>1202.0</ele><time>2026-07-12T13:20:28Z</time></trkpt>
      <trkpt lat="46.539186" lon="12.132967"><ele>1201.1</ele><time>2026-07-12T13:20:50Z</time></trkpt>
      <trkpt lat="46.539438" lon="12.133515"><ele>1200.3</ele><time>2026-07-12T13:21:12Z</time></trkpt>
      <trkpt lat="46.539700" lon="12.134062"><ele>1199.8</ele><time>2026-07-12T13:21:34Z</time></trkpt>
      <trkpt lat="46.539963" lon="12.134609"><ele>1199.3</ele><time>2026-07-12T13:21:56Z</time></trkpt>
      <trkpt lat="46.540222" lon="12.135156"><ele>1199.1</ele><time>2026-07-12T13:22:18Z</time></trkpt>
      <trkpt lat="46.540500" lon="12.135700"><ele>1224.0</ele><time>2026-07-12T13:22:40Z</time></trkpt>
    </trkseg>
  </trk>
</gpx>
